{"type": "FeatureCollection", "features": [{"type": "Feature", "id": "43118", "geometry": {"type": "MultiPolygon", "coordinates": [[[[3.4162834, 45.1450719], [3.4176293, 45.1451078], [3.4187877, 45.1452992], [3.4196122, 45.1455466], [3.4203337, 45.1459469], [3.4205116, 45.1462873], [3.4207536, 45.1467813], [3.4207412, 45.1474878], [3.4206361, 45.1480739], [3.4204002, 45.1486477], [3.4198237, 45.1502305], [3.4200203, 45.1513423], [3.4203412, 45.1526829], [3.4203706, 45.1536609], [3.4205012, 45.1543978], [3.4205887, 45.1546754], [3.4216323, 45.1556698], [3.4214299, 45.1558868], [3.4213397, 45.1559739], [3.421251, 45.1560594], [3.4211207, 45.1561866], [3.4210239, 45.1562813], [3.4207988, 45.1565044], [3.4207094, 45.1565632], [3.4206912, 45.1565859], [3.4206763, 45.1566082], [3.4206639, 45.1566313], [3.4206284, 45.1566621], [3.4205783, 45.1567416], [3.4205726, 45.1567554], [3.420575, 45.1567868], [3.420589, 45.1568274], [3.4206168, 45.1569007], [3.4206471, 45.1569735], [3.4206045, 45.1569548], [3.420586, 45.1569412], [3.4205737, 45.1570476], [3.4205637, 45.1572687], [3.4205334, 45.1573723], [3.4204818, 45.1575275], [3.4204313, 45.1576862], [3.4203827, 45.1578439], [3.4203595, 45.1578411], [3.4203469, 45.157897], [3.4203524, 45.1579041], [3.4203655, 45.1579093], [3.4203391, 45.1579986], [3.4201889, 45.1585569], [3.4201785, 45.1585927], [3.4210405, 45.1588888], [3.4215927, 45.1593684], [3.421976, 45.1598054], [3.422519, 45.160266], [3.4230125, 45.1608], [3.4231828, 45.1609296], [3.4234507, 45.1610156], [3.4240776, 45.1612094], [3.4242926, 45.1613392], [3.4246432, 45.1616644], [3.4248495, 45.1621532], [3.4251249, 45.1628603], [3.4255186, 45.1632643], [3.4259495, 45.1634848], [3.426648, 45.1637831], [3.4270302, 45.1639807], [3.4274958, 45.1641277], [3.4276851, 45.1642623], [3.4282695, 45.1646387], [3.4285602, 45.1648377], [3.4289371, 45.1650236], [3.4289789, 45.1650161], [3.4290828, 45.1650448], [3.429396, 45.1651091], [3.4298122, 45.1651956], [3.4298349, 45.1652], [3.4298971, 45.165212], [3.4300925, 45.1652497], [3.4302803, 45.165287], [3.4304215, 45.1653148], [3.4305771, 45.165381], [3.4310063, 45.1655589], [3.4310657, 45.1655865], [3.4311012, 45.1656059], [3.4314437, 45.1658017], [3.4320069, 45.1660916], [3.4321837, 45.1661635], [3.4323652, 45.1662885], [3.4322964, 45.1662969], [3.4318034, 45.1665736], [3.4317409, 45.1666104], [3.4317142, 45.166626], [3.4314904, 45.1665611], [3.4314386, 45.1665334], [3.4313607, 45.166456], [3.4312965, 45.1663883], [3.4312249, 45.1663127], [3.4311089, 45.1661872], [3.4310657, 45.1661389], [3.43102, 45.16609], [3.4308324, 45.1659844], [3.4305897, 45.1658611], [3.4303223, 45.1657293], [3.430199, 45.165717], [3.4301186, 45.1656913], [3.4300009, 45.1656507], [3.4299506, 45.1656424], [3.4298153, 45.1656279], [3.4296367, 45.1656104], [3.4294744, 45.1655957], [3.429419, 45.1655931], [3.4292327, 45.1655781], [3.4290459, 45.16562], [3.4288541, 45.1656646], [3.4286774, 45.1657071], [3.428498, 45.1656657], [3.428409, 45.1656498], [3.4281578, 45.165639], [3.4280766, 45.1656407], [3.4278971, 45.1656549], [3.4278265, 45.165648], [3.4277884, 45.1656424], [3.4277573, 45.1656359], [3.4277121, 45.1656173], [3.4276512, 45.1655875], [3.4275722, 45.1655489], [3.4275199, 45.1655338], [3.4274744, 45.1655262], [3.4274294, 45.1655249], [3.4272307, 45.1655469], [3.4271437, 45.1655489], [3.4269222, 45.1655477], [3.4268008, 45.1655415], [3.4265824, 45.1655111], [3.4264363, 45.1654915], [3.4263123, 45.1654737], [3.4262365, 45.1654301], [3.4261825, 45.1654073], [3.4261669, 45.165403], [3.4259322, 45.165416], [3.425592, 45.1654314], [3.4255465, 45.1654344], [3.4253699, 45.1654673], [3.4252824, 45.1654752], [3.4252296, 45.1654706], [3.4252027, 45.1654661], [3.4250753, 45.1654231], [3.4249643, 45.1654096], [3.4247894, 45.1654122], [3.4247105, 45.1654241], [3.4246404, 45.1654447], [3.4245629, 45.1654552], [3.4244913, 45.1654568], [3.4244248, 45.1654569], [3.4243524, 45.165456], [3.4243054, 45.1654667], [3.4242549, 45.1654938], [3.4241256, 45.1655764], [3.4241035, 45.1655941], [3.4240673, 45.1656727], [3.4240436, 45.1656893], [3.424009, 45.1657116], [3.4239625, 45.1657297], [3.4239006, 45.1657466], [3.4237976, 45.1657708], [3.4236768, 45.165788], [3.4234753, 45.1658008], [3.4234534, 45.165804], [3.4231303, 45.1659156], [3.4231034, 45.1659282], [3.4230058, 45.166001], [3.4228841, 45.1660934], [3.4228649, 45.1660802], [3.4228123, 45.166033], [3.4221674, 45.1654592], [3.4220864, 45.1653835], [3.4220707, 45.1653688], [3.4220596, 45.1653583], [3.4219285, 45.1652421], [3.4219105, 45.1652823], [3.4219933, 45.1653832], [3.422004, 45.1653962], [3.4220239, 45.1654204], [3.4220929, 45.1655054], [3.4226173, 45.1661517], [3.4227161, 45.1662783], [3.4227362, 45.1663018], [3.4227045, 45.1663257], [3.4226319, 45.1663621], [3.422191, 45.1664334], [3.4221167, 45.1664531], [3.4220434, 45.1664967], [3.4219614, 45.1665792], [3.4217818, 45.1666806], [3.4215862, 45.16675], [3.4214903, 45.1667727], [3.4211658, 45.1668225], [3.4211184, 45.1668534], [3.4210122, 45.1669821], [3.4209868, 45.1670025], [3.420923, 45.1670574], [3.4208636, 45.1671148], [3.4208542, 45.1671609], [3.420843, 45.1672118], [3.42081, 45.1672436], [3.4206931, 45.1672943], [3.4203381, 45.1674032], [3.4201988, 45.1674341], [3.4200454, 45.1674431], [3.4199265, 45.1674361], [3.4197711, 45.1674116], [3.4194747, 45.1672993], [3.4194427, 45.167296], [3.4192906, 45.1673377], [3.4192516, 45.1673375], [3.4189358, 45.1672266], [3.4188378, 45.167206], [3.4187531, 45.167184], [3.4185052, 45.1670914], [3.4184576, 45.1670778], [3.418415, 45.1670767], [3.4182265, 45.167116], [3.4181523, 45.1671184], [3.4181042, 45.1671032], [3.4180723, 45.167082], [3.4180701, 45.1670648], [3.4180692, 45.1670268], [3.4180736, 45.1669888], [3.4180423, 45.1669547], [3.4179977, 45.166932], [3.4175956, 45.1668105], [3.4175634, 45.1667751], [3.417548, 45.1666581], [3.4175175, 45.166631], [3.4174258, 45.166573], [3.4171628, 45.1664834], [3.4168149, 45.1663144], [3.4164662, 45.1662162], [3.4163058, 45.1661816], [3.416173, 45.1661733], [3.4160612, 45.1661863], [3.4155858, 45.1662931], [3.4153766, 45.1663249], [3.4152409, 45.1663279], [3.415192, 45.1663272], [3.41489, 45.1662937], [3.4147913, 45.166397], [3.4146812, 45.1664669], [3.414524, 45.1665272], [3.4137959, 45.1667192], [3.4133913, 45.1668272], [3.4132937, 45.1666749], [3.4134387, 45.1658292], [3.4134572, 45.1654187], [3.4133919, 45.1646781], [3.4131792, 45.1640599], [3.4124534, 45.163085], [3.4120869, 45.1624988], [3.4116762, 45.1620977], [3.4107077, 45.1614456], [3.4092985, 45.1604962], [3.4085357, 45.1598574], [3.4076318, 45.1590704], [3.4061701, 45.1581088], [3.405644, 45.1574106], [3.4053554, 45.1574446], [3.4052947, 45.1574517], [3.4051737, 45.1574618], [3.4051157, 45.1574359], [3.4050704, 45.1574279], [3.4049306, 45.1574276], [3.4046277, 45.1573636], [3.4044675, 45.1572456], [3.4044137, 45.1572212], [3.4043397, 45.1572074], [3.4042946, 45.1571901], [3.4041219, 45.1571122], [3.4040687, 45.1570671], [3.4040223, 45.1570531], [3.4039378, 45.1570276], [3.4038075, 45.1570292], [3.4036301, 45.1570381], [3.4034994, 45.1570065], [3.4031075, 45.156971], [3.4029358, 45.1569485], [3.402751, 45.156982], [3.4027249, 45.1569839], [3.4026967, 45.1569977], [3.4026077, 45.1570387], [3.4025162, 45.1570771], [3.4024681, 45.1570917], [3.4023727, 45.1571181], [3.4022758, 45.1571415], [3.4020517, 45.1573275], [3.4016952, 45.1575296], [3.4013062, 45.1577462], [3.4012144, 45.1578685], [3.4012224, 45.1579597], [3.4012156, 45.157981], [3.4012008, 45.158], [3.4011509, 45.1580684], [3.4011049, 45.1581384], [3.4010848, 45.1581951], [3.401084, 45.1582337], [3.4011027, 45.1583151], [3.4010984, 45.1583391], [3.4010359, 45.1584453], [3.4009931, 45.1585146], [3.4009767, 45.1586136], [3.4009769, 45.1586459], [3.4008953, 45.1587106], [3.4008547, 45.1587511], [3.4008053, 45.1587952], [3.4007525, 45.1588376], [3.4006658, 45.1588824], [3.400645, 45.1589544], [3.4006265, 45.1590331], [3.4006122, 45.1590615], [3.4005753, 45.1591277], [3.4005344, 45.1591927], [3.4004155, 45.1592861], [3.4002461, 45.1593678], [3.4001731, 45.1594517], [3.3998073, 45.1597398], [3.3995996, 45.1599264], [3.3993373, 45.1600616], [3.399334, 45.1600643], [3.3992896, 45.1600996], [3.3988197, 45.1602986], [3.3987096, 45.1603486], [3.3985241, 45.1603583], [3.3983654, 45.1603633], [3.3982036, 45.1604285], [3.3980499, 45.1604359], [3.3978638, 45.1604775], [3.3975844, 45.1604872], [3.3972887, 45.1604761], [3.3971025, 45.1605088], [3.396957, 45.160467], [3.3967069, 45.1603341], [3.3966091, 45.1602966], [3.3965688, 45.1602699], [3.396379, 45.1601288], [3.3964072, 45.1600599], [3.3962348, 45.1600177], [3.3960991, 45.1600072], [3.3959922, 45.1599661], [3.3959406, 45.1599664], [3.3958674, 45.1599148], [3.3955226, 45.159649], [3.3954069, 45.1595317], [3.3952403, 45.1594312], [3.3951776, 45.1594009], [3.3949627, 45.1592991], [3.3947454, 45.1592], [3.3946745, 45.1591437], [3.394583, 45.1590753], [3.3944885, 45.1590092], [3.3943909, 45.1589451], [3.3943851, 45.1589347], [3.3943793, 45.1588951], [3.3943735, 45.1588568], [3.3943596, 45.1587639], [3.3943535, 45.1587514], [3.3943956, 45.158746], [3.3944643, 45.1587543], [3.394521, 45.1587784], [3.3945913, 45.1588119], [3.3947081, 45.1588687], [3.394751, 45.1588828], [3.394907, 45.158924], [3.395004, 45.1589334], [3.3950241, 45.1588995], [3.3950079, 45.1588648], [3.3949762, 45.1588448], [3.3948865, 45.158769], [3.3948826, 45.1587521], [3.3948946, 45.15872], [3.3949329, 45.1586892], [3.3949944, 45.1586454], [3.3950961, 45.1584917], [3.3951391, 45.1584218], [3.3951786, 45.1582463], [3.3951818, 45.1582126], [3.3951806, 45.1580487], [3.3951734, 45.1579065], [3.3951733, 45.1577994], [3.3951692, 45.1577018], [3.3951266, 45.1575365], [3.3950974, 45.1574184], [3.3950656, 45.1572947], [3.3950355, 45.1571815], [3.3950084, 45.157073], [3.3949773, 45.1569909], [3.3949623, 45.1569383], [3.3949314, 45.1568208], [3.3948859, 45.1566943], [3.3948316, 45.1565723], [3.3947232, 45.1563877], [3.3947386, 45.1563844], [3.3948203, 45.1563276], [3.3950552, 45.1561644], [3.3954112, 45.155917], [3.3955624, 45.1558118], [3.3955715, 45.1558055], [3.3958541, 45.1555002], [3.3959198, 45.1554197], [3.3957027, 45.1553547], [3.3956505, 45.155336], [3.395597, 45.1553147], [3.3955802, 45.155308], [3.3955122, 45.1552774], [3.3954668, 45.1552712], [3.395546, 45.1551747], [3.395641, 45.1550588], [3.3956845, 45.1550108], [3.3957114, 45.1549607], [3.3957649, 45.1548612], [3.3957991, 45.1548062], [3.3958125, 45.1547405], [3.3958314, 45.1546472], [3.3958362, 45.1546045], [3.3958479, 45.1545292], [3.3958639, 45.1544543], [3.3958652, 45.1543705], [3.3958709, 45.1542309], [3.3958807, 45.1540915], [3.3958813, 45.1539142], [3.3958812, 45.1538916], [3.3958785, 45.1537398], [3.3958755, 45.1535771], [3.395894, 45.1535208], [3.395907, 45.1534803], [3.395945, 45.1533639], [3.3959648, 45.1533488], [3.3960359, 45.1532915], [3.3961103, 45.1532363], [3.3961414, 45.1532218], [3.3963588, 45.1531199], [3.3965661, 45.1530187], [3.3965788, 45.1530147], [3.3965854, 45.1530125], [3.3966836, 45.1529814], [3.396776, 45.1529518], [3.3967466, 45.1529056], [3.3968399, 45.1528721], [3.3970512, 45.152801], [3.3975498, 45.152633], [3.397649, 45.1525997], [3.3976839, 45.1525879], [3.3977003, 45.1525793], [3.3977632, 45.1525434], [3.3978671, 45.1524874], [3.3979736, 45.1524337], [3.3980732, 45.1523661], [3.3982438, 45.1523244], [3.3983074, 45.1522904], [3.3980345, 45.1521672], [3.3978721, 45.1521036], [3.3976078, 45.1520136], [3.3974304, 45.1520076], [3.3973917, 45.1519944], [3.3973414, 45.1519679], [3.3972863, 45.1518945], [3.3972495, 45.1518644], [3.3971485, 45.1518362], [3.3970628, 45.1518158], [3.3969439, 45.1517734], [3.396812, 45.151716], [3.3966887, 45.1516586], [3.3965753, 45.1515475], [3.3964237, 45.1514682], [3.3961485, 45.1513499], [3.3960567, 45.1513066], [3.3956677, 45.1512732], [3.3953033, 45.1511877], [3.3952522, 45.1511581], [3.3951208, 45.151063], [3.3949512, 45.1509255], [3.3948903, 45.1508939], [3.3948397, 45.1508802], [3.3947536, 45.1508832], [3.3945129, 45.150914], [3.394447, 45.15092], [3.3943794, 45.1509086], [3.3942483, 45.1508839], [3.3941182, 45.1508564], [3.3940178, 45.1507957], [3.3939065, 45.1506578], [3.3936614, 45.1505906], [3.3935827, 45.1506182], [3.3932762, 45.1505065], [3.3932262, 45.1504838], [3.3930194, 45.1503324], [3.3928861, 45.1502512], [3.3927808, 45.1501979], [3.3926664, 45.1501589], [3.3925571, 45.150125], [3.3924402, 45.1500526], [3.3922832, 45.15002], [3.3923678, 45.1498756], [3.3923342, 45.1497202], [3.3923076, 45.1495762], [3.3922849, 45.149479], [3.3922856, 45.149439], [3.392334, 45.1493292], [3.3924921, 45.1490144], [3.3925248, 45.1489425], [3.3925527, 45.1488238], [3.3926379, 45.1486482], [3.3926183, 45.1485253], [3.3925864, 45.1483474], [3.3925504, 45.1481698], [3.3925519, 45.1480373], [3.3925469, 45.148012], [3.392498, 45.1479441], [3.3924506, 45.1478852], [3.3923994, 45.1478278], [3.3923657, 45.1478189], [3.3923511, 45.1477425], [3.3923287, 45.1476084], [3.3923108, 45.147474], [3.3922985, 45.1474367], [3.3922039, 45.1473394], [3.3923232, 45.147247], [3.3924197, 45.1471477], [3.3925218, 45.1469836], [3.3925514, 45.1469739], [3.3929121, 45.1471254], [3.3931638, 45.1471937], [3.3934194, 45.1472497], [3.3937946, 45.1472993], [3.3940786, 45.147325], [3.3943233, 45.1473507], [3.3947585, 45.1474024], [3.3948435, 45.1473865], [3.3949751, 45.1473246], [3.3953615, 45.1471031], [3.3959587, 45.1469921], [3.3960295, 45.1469471], [3.3960999, 45.1469002], [3.3962291, 45.1468367], [3.3965774, 45.146664], [3.3967993, 45.1465184], [3.396832, 45.1465288], [3.3968627, 45.1465242], [3.3973457, 45.1464686], [3.3976491, 45.1464336], [3.3976891, 45.146429], [3.3981891, 45.1463715], [3.3982339, 45.1463631], [3.3985843, 45.1464127], [3.3986892, 45.1464146], [3.3989396, 45.1464194], [3.3990542, 45.1464351], [3.3990775, 45.1464474], [3.3992687, 45.1465286], [3.3993805, 45.1465841], [3.3994909, 45.1466339], [3.3995979, 45.1465841], [3.3997017, 45.1465286], [3.3997434, 45.1464978], [3.3998577, 45.1463965], [3.3999393, 45.1463282], [3.3999644, 45.1463261], [3.4000017, 45.146335], [3.4004377, 45.1464391], [3.4008268, 45.1465357], [3.4009596, 45.1465685], [3.4009723, 45.1465717], [3.4010619, 45.1465946], [3.4011528, 45.146615], [3.4011641, 45.1466131], [3.4012095, 45.146631], [3.401248, 45.1466461], [3.4013475, 45.1466868], [3.4013777, 45.1466997], [3.4017811, 45.1468575], [3.4027428, 45.1468628], [3.4032006, 45.1471098], [3.4035197, 45.1473663], [3.4038246, 45.1479338], [3.404393, 45.1482972], [3.4054134, 45.1488065], [3.4059991, 45.1490872], [3.4069652, 45.1491473], [3.4082318, 45.148933], [3.4088139, 45.1486896], [3.4093806, 45.1481303], [3.4099981, 45.147693], [3.4102248, 45.1473086], [3.4103045, 45.1467847], [3.410973, 45.1461339], [3.4114737, 45.1457156], [3.4120919, 45.1454832], [3.4134615, 45.1452262], [3.4142149, 45.1451529], [3.4149655, 45.1450833], [3.4162834, 45.1450719]]]]}, "properties": {"id": "43118", "nom": "LAVOUTE CHILHAC", "created": "2014-10-28", "updated": "2025-10-27"}}, {"type": "Feature", "id": "43031", "geometry": {"type": "MultiPolygon", "coordinates": [[[[3.3559797, 45.1424835], [3.3561059, 45.1425089], [3.3562684, 45.1425374], [3.3563619, 45.1425439], [3.356662, 45.1425201], [3.3568892, 45.1425022], [3.3570203, 45.1424915], [3.3570379, 45.1424901], [3.3571693, 45.1425072], [3.3572901, 45.142514], [3.3573187, 45.1425123], [3.3573782, 45.142507], [3.3574624, 45.142502], [3.3574853, 45.1425021], [3.3574642, 45.1426525], [3.357404, 45.1431242], [3.3574951, 45.1431342], [3.3577197, 45.1431587], [3.357739, 45.1431607], [3.3580729, 45.1431987], [3.3584308, 45.1432384], [3.3587928, 45.1432775], [3.3588134, 45.1432821], [3.3585898, 45.1433963], [3.3584452, 45.1434712], [3.358515, 45.1434956], [3.3586529, 45.1435491], [3.3594428, 45.1438619], [3.3595282, 45.1438955], [3.3596409, 45.1439409], [3.3596649, 45.1439504], [3.3597965, 45.1440036], [3.3597563, 45.1440404], [3.3597028, 45.1440929], [3.3596535, 45.1441437], [3.3596328, 45.1441792], [3.3595981, 45.1442644], [3.3595918, 45.1442786], [3.3595649, 45.1443479], [3.3595418, 45.144415], [3.3595346, 45.1444367], [3.3595011, 45.1445544], [3.3594891, 45.1446685], [3.3594842, 45.1447216], [3.3594857, 45.1447571], [3.359477, 45.1448016], [3.3593934, 45.1448973], [3.3593658, 45.1449503], [3.3593481, 45.1450422], [3.3593252, 45.1451335], [3.359313, 45.1451747], [3.35928, 45.1452156], [3.3591416, 45.1452824], [3.3591101, 45.1453071], [3.3590828, 45.1453341], [3.3590557, 45.1453698], [3.3590682, 45.1453965], [3.3592507, 45.1455448], [3.3595267, 45.1457316], [3.3595835, 45.1457957], [3.3596356, 45.1458616], [3.3596722, 45.1459128], [3.3597233, 45.1460124], [3.3597697, 45.1461131], [3.3597985, 45.146183], [3.3598618, 45.146175], [3.3599246, 45.1461279], [3.3600944, 45.1455998], [3.3601621, 45.1454999], [3.3602914, 45.1453314], [3.3603801, 45.1452403], [3.3604635, 45.1451847], [3.3607759, 45.1450357], [3.3611438, 45.1448731], [3.3613459, 45.1447417], [3.3615611, 45.144574], [3.3617215, 45.1445043], [3.3620139, 45.1444302], [3.3623052, 45.1443709], [3.3625176, 45.1443508], [3.3627321, 45.1443464], [3.3633512, 45.1444806], [3.3636143, 45.1445303], [3.3640919, 45.144572], [3.3644032, 45.1446434], [3.3647276, 45.1447332], [3.3646546, 45.1449099], [3.3646079, 45.1450897], [3.3646241, 45.1451433], [3.3646694, 45.1451699], [3.3647089, 45.1451752], [3.3647327, 45.1451755], [3.3647808, 45.1451658], [3.364872, 45.1451216], [3.3651193, 45.1448996], [3.3652278, 45.1448237], [3.3654436, 45.1447227], [3.3656346, 45.1446596], [3.3660158, 45.14459], [3.3663107, 45.1444983], [3.3664881, 45.1444546], [3.3666642, 45.1444559], [3.3668159, 45.1444754], [3.3669559, 45.1445219], [3.3671401, 45.1446309], [3.3673404, 45.1447084], [3.3674056, 45.1447815], [3.3675011, 45.1450098], [3.3676655, 45.1451362], [3.3676821, 45.1453462], [3.3677286, 45.1453959], [3.3678466, 45.1454695], [3.3678575, 45.1454745], [3.3679607, 45.1455136], [3.3679872, 45.1455358], [3.3679283, 45.1455569], [3.3678675, 45.1455808], [3.3678478, 45.1456226], [3.3679058, 45.1456388], [3.367998, 45.1456067], [3.3681453, 45.1455118], [3.3682886, 45.1454619], [3.3683882, 45.1454051], [3.3684287, 45.1453644], [3.3684821, 45.1452892], [3.3685297, 45.1452369], [3.3686664, 45.14511], [3.3688435, 45.1448994], [3.368911, 45.1448489], [3.3689734, 45.1448185], [3.3692022, 45.1447434], [3.3695618, 45.1446637], [3.3699654, 45.1445595], [3.3703398, 45.1444931], [3.3706415, 45.1444885], [3.3711694, 45.1444861], [3.371797, 45.1445364], [3.3722605, 45.1445873], [3.3729227, 45.1446428], [3.3732356, 45.1446407], [3.3736006, 45.1446805], [3.3739311, 45.1447831], [3.3741123, 45.1448457], [3.3745906, 45.1450736], [3.3747098, 45.1451268], [3.375049, 45.1452201], [3.3751743, 45.1452487], [3.3755339, 45.1453654], [3.3756827, 45.1454349], [3.3758343, 45.1455012], [3.3759888, 45.1455642], [3.3760679, 45.1455946], [3.376432, 45.1457743], [3.3769995, 45.1459918], [3.3772978, 45.1461172], [3.3777172, 45.1463157], [3.3781056, 45.1464821], [3.3782576, 45.1465693], [3.3784151, 45.1466791], [3.3786049, 45.1468426], [3.378697, 45.1469471], [3.3787457, 45.1470447], [3.3787635, 45.1471359], [3.3788215, 45.1471703], [3.3793106, 45.1472221], [3.3796542, 45.1473073], [3.3801002, 45.1473792], [3.3802145, 45.14752], [3.3803346, 45.1476267], [3.3804873, 45.1479273], [3.3805809, 45.1480296], [3.3806632, 45.1480609], [3.3808134, 45.1480146], [3.3809508, 45.1479547], [3.3811145, 45.147836], [3.3813366, 45.1477115], [3.3814472, 45.1476581], [3.3819323, 45.1473148], [3.3821471, 45.1472518], [3.3822336, 45.1472509], [3.3823533, 45.1473164], [3.382545, 45.1474484], [3.3829169, 45.147583], [3.3834206, 45.1477386], [3.3835716, 45.1477735], [3.3839011, 45.1477214], [3.3840492, 45.147668], [3.3841884, 45.1477003], [3.3844145, 45.1478016], [3.3844011, 45.1477487], [3.3846036, 45.1477128], [3.3848776, 45.1475996], [3.3851487, 45.1474832], [3.3852607, 45.1474337], [3.3853599, 45.1474481], [3.3856268, 45.1473476], [3.3860422, 45.1473039], [3.3863503, 45.1472385], [3.386657, 45.1471492], [3.3871384, 45.1469952], [3.3878711, 45.1469074], [3.3884608, 45.1469444], [3.3888748, 45.1469768], [3.3892895, 45.1470053], [3.3896063, 45.1470244], [3.3898161, 45.1470212], [3.3900259, 45.1470216], [3.3901216, 45.1470233], [3.3904956, 45.1470943], [3.3908461, 45.1471313], [3.3911202, 45.1471917], [3.3912064, 45.1471919], [3.3917444, 45.1471238], [3.3918828, 45.1470891], [3.392103, 45.146965], [3.3922603, 45.1469067], [3.3923625, 45.1468921], [3.3924718, 45.1468951], [3.3925507, 45.1469116], [3.3925455, 45.1469237], [3.3925262, 45.1469756], [3.392502, 45.1470264], [3.3924903, 45.1470474], [3.3924463, 45.1471023], [3.3922662, 45.1472702], [3.3922488, 45.1472898], [3.3922624, 45.1473174], [3.3923621, 45.147398], [3.3923811, 45.1474308], [3.3924125, 45.14778], [3.392455, 45.1477803], [3.3926071, 45.1479418], [3.3926185, 45.1480632], [3.3926247, 45.1481993], [3.3926367, 45.1483405], [3.392631, 45.1485825], [3.3926224, 45.1486534], [3.3925648, 45.1489664], [3.3924071, 45.1492481], [3.392382, 45.1493], [3.3923619, 45.149353], [3.3923472, 45.1494068], [3.3923423, 45.1494313], [3.3923745, 45.1494998], [3.392401, 45.1496383], [3.3924224, 45.1497771], [3.3924321, 45.149856], [3.3923669, 45.1499744], [3.3923622, 45.1499844], [3.3928196, 45.1501132], [3.3930462, 45.1502221], [3.3931875, 45.1503011], [3.3932536, 45.150329], [3.3934146, 45.1504104], [3.3938239, 45.1505648], [3.3941408, 45.1507696], [3.3942862, 45.150833], [3.3944354, 45.1508782], [3.3945945, 45.1508967], [3.3948653, 45.1508781], [3.3949504, 45.150894], [3.3950863, 45.1510081], [3.3952182, 45.1511246], [3.395294, 45.1511944], [3.3953768, 45.1511904], [3.3959505, 45.1512998], [3.396119, 45.151306], [3.3963697, 45.1513984], [3.3965725, 45.1515165], [3.3969482, 45.1517595], [3.3970388, 45.1517893], [3.3972345, 45.1518243], [3.3972799, 45.1518518], [3.397404, 45.1519738], [3.3974817, 45.1520016], [3.3975456, 45.1520043], [3.3976487, 45.1519902], [3.3977869, 45.1520121], [3.3980109, 45.1521294], [3.3981457, 45.1521777], [3.3982731, 45.152216], [3.3983304, 45.1522371], [3.3984149, 45.1522786], [3.3983121, 45.1523256], [3.3981562, 45.152354], [3.3980543, 45.1524069], [3.3978206, 45.1525443], [3.3977568, 45.1525702], [3.3976431, 45.1525929], [3.3975, 45.1526158], [3.3970482, 45.1527974], [3.3968501, 45.1528844], [3.3968035, 45.1529049], [3.3968423, 45.1529565], [3.3967118, 45.1530116], [3.3966179, 45.1530512], [3.3965819, 45.1530175], [3.3965483, 45.1530567], [3.3963822, 45.1531406], [3.3961637, 45.153251], [3.3961153, 45.1532811], [3.3960697, 45.1533188], [3.3960403, 45.1533429], [3.3960306, 45.1533509], [3.3959626, 45.1534965], [3.3959682, 45.1535528], [3.3959281, 45.153683], [3.3959241, 45.1537343], [3.3959232, 45.1539118], [3.3959176, 45.1539438], [3.3959161, 45.1541168], [3.395915, 45.1542317], [3.3959014, 45.1543972], [3.3958905, 45.1544768], [3.3958787, 45.1545324], [3.395864, 45.1546033], [3.3958546, 45.1546476], [3.3958337, 45.1547481], [3.3958126, 45.1548199], [3.3957869, 45.1548965], [3.3957322, 45.1549757], [3.3957102, 45.1550091], [3.3956564, 45.1550666], [3.3955518, 45.1551783], [3.3954962, 45.1552284], [3.3955389, 45.1552496], [3.3956047, 45.1552822], [3.395623, 45.1552912], [3.3956762, 45.1553095], [3.395846, 45.155368], [3.3959379, 45.1553943], [3.3958443, 45.155498], [3.3956033, 45.1557653], [3.3955524, 45.1557864], [3.3953928, 45.155902], [3.3950428, 45.1561508], [3.3948071, 45.1563176], [3.3947524, 45.1563562], [3.3947366, 45.1563719], [3.3947424, 45.1563767], [3.3948079, 45.1564331], [3.3948945, 45.1565886], [3.3950318, 45.1569465], [3.3950057, 45.1570043], [3.3950672, 45.1570392], [3.395093, 45.1571576], [3.3951134, 45.1573751], [3.3951306, 45.1576727], [3.3951578, 45.1580233], [3.3951636, 45.1581951], [3.3951433, 45.1582942], [3.3951178, 45.1583928], [3.3950966, 45.1584615], [3.3949834, 45.1586142], [3.3948316, 45.1587042], [3.3948208, 45.1587266], [3.3948219, 45.1587846], [3.3948089, 45.1588098], [3.394734, 45.1588188], [3.394349, 45.1588098], [3.3943363, 45.1588095], [3.3943441, 45.1588307], [3.3943434, 45.1588636], [3.3943371, 45.1588963], [3.3943327, 45.158911], [3.394327, 45.1589244], [3.3944741, 45.1590325], [3.3946172, 45.1591432], [3.3947126, 45.1592201], [3.3947967, 45.1592713], [3.3948984, 45.1593141], [3.3951827, 45.1594201], [3.395273, 45.1594586], [3.3953293, 45.1594953], [3.3955092, 45.1596472], [3.3956932, 45.1597967], [3.3957553, 45.1598459], [3.3958936, 45.1599401], [3.3960899, 45.1600571], [3.39613, 45.160072], [3.3961721, 45.1600833], [3.3962159, 45.160091], [3.3962269, 45.1600923], [3.3962759, 45.1601006], [3.3963165, 45.1601132], [3.3965618, 45.1602096], [3.3966654, 45.1602475], [3.3968448, 45.160359], [3.3969311, 45.1604034], [3.3969955, 45.1604437], [3.3970221, 45.160461], [3.3970488, 45.160489], [3.397152, 45.1604549], [3.397199, 45.160443], [3.3973604, 45.1604275], [3.3974528, 45.1604274], [3.3976107, 45.1604162], [3.397746, 45.1604059], [3.3978809, 45.1603935], [3.3979308, 45.1603885], [3.3981944, 45.1603487], [3.3983472, 45.1603017], [3.3984346, 45.1602884], [3.3985559, 45.160279], [3.398653, 45.1602447], [3.3987698, 45.1601931], [3.3988881, 45.1601433], [3.3990033, 45.1600967], [3.3991411, 45.1600577], [3.3992257, 45.159999], [3.3992585, 45.1599722], [3.3992683, 45.1599752], [3.399265, 45.1599583], [3.3995762, 45.159766], [3.3996904, 45.1596981], [3.3999095, 45.1595882], [3.3999827, 45.159539], [3.4000667, 45.1594797], [3.400149, 45.1594192], [3.4002324, 45.1593391], [3.4002479, 45.1593307], [3.4003082, 45.1592996], [3.4003702, 45.1592702], [3.400445, 45.1592305], [3.4004922, 45.1591929], [3.400533, 45.1591027], [3.4005665, 45.1590532], [3.4006022, 45.1590137], [3.4006191, 45.1589468], [3.4006607, 45.1588379], [3.4007483, 45.1587272], [3.4007815, 45.1586973], [3.4008785, 45.1586793], [3.4009624, 45.1586339], [3.4009767, 45.1586136], [3.4009931, 45.1585146], [3.4010359, 45.1584453], [3.4010984, 45.1583391], [3.4011027, 45.1583151], [3.401084, 45.1582337], [3.4010848, 45.1581951], [3.4010817, 45.1581576], [3.4011052, 45.1580957], [3.4011876, 45.1579953], [3.4011969, 45.1579692], [3.4011856, 45.1578785], [3.4011899, 45.1578544], [3.4012199, 45.1578133], [3.4013008, 45.1577463], [3.4013664, 45.1577046], [3.4014469, 45.1576672], [3.4014804, 45.1576441], [3.4015896, 45.1575704], [3.4017006, 45.1574981], [3.4018698, 45.1574094], [3.4019675, 45.1573526], [3.4021157, 45.1572647], [3.4022163, 45.1571942], [3.402282, 45.1571559], [3.4023388, 45.157133], [3.4024416, 45.1571063], [3.4025053, 45.1570857], [3.4025504, 45.1570515], [3.402616, 45.1570119], [3.402751, 45.156982], [3.4029358, 45.1569485], [3.4031075, 45.156971], [3.4034994, 45.1570065], [3.4036301, 45.1570381], [3.4038075, 45.1570292], [3.4039378, 45.1570276], [3.4040223, 45.1570531], [3.4040687, 45.1570671], [3.4041219, 45.1571122], [3.4042946, 45.1571901], [3.4043397, 45.1572074], [3.4044137, 45.1572212], [3.4044675, 45.1572456], [3.4046277, 45.1573636], [3.4049306, 45.1574276], [3.4050704, 45.1574279], [3.4051157, 45.1574359], [3.4051737, 45.1574618], [3.4052947, 45.1574517], [3.4053554, 45.1574446], [3.405644, 45.1574106], [3.4061701, 45.1581088], [3.4076318, 45.1590704], [3.4085357, 45.1598574], [3.4092985, 45.1604962], [3.4107077, 45.1614456], [3.4116762, 45.1620977], [3.4120869, 45.1624988], [3.4124534, 45.163085], [3.4131792, 45.1640599], [3.4133919, 45.1646781], [3.4134572, 45.1654187], [3.4134387, 45.1658292], [3.4132937, 45.1666749], [3.4133913, 45.1668272], [3.4137133, 45.1672158], [3.4143836, 45.1679808], [3.4147501, 45.1679737], [3.4148858, 45.1679733], [3.4150559, 45.1679707], [3.4153697, 45.167936], [3.4155391, 45.1679532], [3.4157625, 45.1679402], [3.4163081, 45.167941], [3.4164493, 45.1679507], [3.416576, 45.1679514], [3.4167349, 45.1679209], [3.416801, 45.1679296], [3.4169834, 45.1679948], [3.4170185, 45.1679903], [3.4171494, 45.167916], [3.4174329, 45.1679641], [3.4177061, 45.1679912], [3.4178296, 45.1680246], [3.4180446, 45.1681152], [3.4180898, 45.1681203], [3.4182872, 45.1680991], [3.4185734, 45.1683434], [3.41863, 45.1684186], [3.4186305, 45.1686729], [3.4187546, 45.168775], [3.4188551, 45.1688832], [3.4190169, 45.1689942], [3.4192709, 45.1691305], [3.4193587, 45.1691678], [3.4194026, 45.1691762], [3.4195422, 45.1691752], [3.4198768, 45.1692627], [3.4199685, 45.1692683], [3.4200832, 45.1692953], [3.4202136, 45.1693038], [3.4203096, 45.1693191], [3.4204646, 45.169378], [3.4205574, 45.1693326], [3.4206448, 45.1693569], [3.4208682, 45.1694761], [3.4211056, 45.1694979], [3.4212963, 45.1695322], [3.4214586, 45.1695859], [3.4219963, 45.1695862], [3.4221738, 45.1695528], [3.4223274, 45.1695655], [3.4225454, 45.1695258], [3.4228387, 45.1696355], [3.4230406, 45.1696909], [3.4231408, 45.1697335], [3.4233676, 45.1698804], [3.4234852, 45.1698651], [3.4236204, 45.1699486], [3.4237551, 45.1700709], [3.4238363, 45.1701204], [3.4239119, 45.1702377], [3.423921, 45.1702594], [3.424016, 45.1703077], [3.4240805, 45.1703403], [3.424079, 45.170418], [3.4241186, 45.1704389], [3.4243704, 45.1705722], [3.4243713, 45.1705727], [3.4244045, 45.1706055], [3.4243906, 45.1706292], [3.4242967, 45.1707501], [3.4242877, 45.1707616], [3.4243182, 45.1707719], [3.4243841, 45.1707943], [3.4244155, 45.170805], [3.424562, 45.1708321], [3.4246294, 45.1708487], [3.424695, 45.1708689], [3.4247583, 45.1708925], [3.4247782, 45.1709009], [3.4249367, 45.1709251], [3.4248939, 45.1710455], [3.4248458, 45.1711649], [3.4247924, 45.1712832], [3.4247821, 45.1713125], [3.4245245, 45.1711295], [3.424443, 45.1714771], [3.4243716, 45.1717709], [3.4243296, 45.171773], [3.4243107, 45.1723274], [3.4240703, 45.1723681], [3.4239296, 45.1723917], [3.4238565, 45.172404], [3.4239734, 45.172505], [3.4242761, 45.1727813], [3.4242716, 45.1727856], [3.4242403, 45.1728147], [3.4242239, 45.1728302], [3.4242207, 45.1728887], [3.424226, 45.1729398], [3.4242319, 45.1729627], [3.4240944, 45.1730168], [3.4239702, 45.1731112], [3.4238689, 45.1731913], [3.4236506, 45.1733458], [3.4232634, 45.1735911], [3.423208, 45.1736522], [3.4232222, 45.173708], [3.4233222, 45.1738668], [3.4233477, 45.1738726], [3.423408, 45.1739246], [3.4237269, 45.1742098], [3.4237369, 45.1742186], [3.4242024, 45.1742967], [3.42431, 45.1743151], [3.4243343, 45.1743202], [3.4245808, 45.1743838], [3.4252451, 45.1745608], [3.4251133, 45.1746939], [3.4251298, 45.174735], [3.425137, 45.1747679], [3.4251123, 45.1748073], [3.4250511, 45.174863], [3.4248478, 45.1750517], [3.4247854, 45.1750967], [3.4246711, 45.1751306], [3.4246457, 45.1751525], [3.4246243, 45.1751889], [3.4245901, 45.1752871], [3.4245633, 45.1753235], [3.424377, 45.175456], [3.4242892, 45.1755274], [3.4242134, 45.1755939], [3.4240811, 45.1757378], [3.4240221, 45.1757943], [3.4239095, 45.1758786], [3.4237762, 45.1759858], [3.4237446, 45.176006], [3.4236999, 45.1760531], [3.4236662, 45.1761649], [3.4234686, 45.1763576], [3.4233479, 45.1765349], [3.4233073, 45.1766482], [3.4232331, 45.1767291], [3.423208, 45.1767589], [3.4232005, 45.176875], [3.423234, 45.1770837], [3.4232333, 45.1771738], [3.4232161, 45.1772943], [3.4230967, 45.1775437], [3.4230557, 45.177678], [3.42302, 45.177742], [3.4228534, 45.1779174], [3.4228324, 45.1779444], [3.422789, 45.1780615], [3.4227381, 45.1781711], [3.4227312, 45.1782141], [3.4227449, 45.1782994], [3.4227403, 45.1783752], [3.4227274, 45.1784006], [3.4227069, 45.178436], [3.4226585, 45.1785045], [3.4226328, 45.1785731], [3.4226227, 45.1786969], [3.4225852, 45.1787677], [3.4225233, 45.1790543], [3.4224903, 45.1791251], [3.4224674, 45.1791921], [3.4223285, 45.1794012], [3.422257, 45.1795323], [3.4221704, 45.1796538], [3.4220603, 45.1798402], [3.4219594, 45.179996], [3.4218696, 45.1800834], [3.4217115, 45.1802052], [3.4216116, 45.1802773], [3.4214356, 45.1804508], [3.4213781, 45.18049], [3.4210119, 45.1804683], [3.420701, 45.1804003], [3.4204078, 45.1803839], [3.4202034, 45.1803437], [3.4200841, 45.1802787], [3.4200097, 45.1801897], [3.4199837, 45.180079], [3.4199798, 45.1798395], [3.4199202, 45.1796735], [3.4198769, 45.1795789], [3.4197553, 45.1795102], [3.4195032, 45.1793965], [3.4193624, 45.1792893], [3.4193021, 45.1791109], [3.4192102, 45.1790615], [3.4191067, 45.1790053], [3.418963, 45.1789318], [3.4188162, 45.1788612], [3.4186371, 45.1787895], [3.4184311, 45.1787373], [3.4181087, 45.1786982], [3.4177366, 45.1786548], [3.4175011, 45.1785252], [3.4174342, 45.178475], [3.4173092, 45.1783771], [3.4171881, 45.1782766], [3.4170473, 45.1782075], [3.4165017, 45.1778759], [3.4164222, 45.1777979], [3.4164175, 45.1777495], [3.4164165, 45.1776888], [3.4164209, 45.1776283], [3.4164098, 45.1775538], [3.4163883, 45.1775055], [3.416306, 45.1774106], [3.4161833, 45.1773095], [3.4159715, 45.1771909], [3.4156535, 45.1769721], [3.4154153, 45.1768426], [3.4148603, 45.1765007], [3.4139792, 45.1760511], [3.4139282, 45.1760315], [3.4138645, 45.1760098], [3.413562, 45.1759142], [3.4131794, 45.1758137], [3.4127836, 45.175675], [3.4125778, 45.175644], [3.4123567, 45.1757045], [3.4122656, 45.1758595], [3.4119883, 45.1761661], [3.4118525, 45.1763469], [3.4114873, 45.1766797], [3.4119679, 45.1772465], [3.4121828, 45.1778593], [3.4121518, 45.1784358], [3.4117877, 45.1790073], [3.4112776, 45.1793841], [3.410621, 45.1795537], [3.4099206, 45.1796741], [3.4082818, 45.1804205], [3.4077337, 45.1809664], [3.4072206, 45.1816204], [3.4067434, 45.1819733], [3.406118, 45.1820645], [3.4049505, 45.1818702], [3.4042298, 45.1816311], [3.4033324, 45.1812004], [3.4029098, 45.1809478], [3.4026623, 45.1806699], [3.402623, 45.1801251], [3.4026815, 45.1797097], [3.4026187, 45.1795053], [3.4023799, 45.1792211], [3.4018557, 45.1788481], [3.4012574, 45.1785464], [3.4008269, 45.1784364], [3.3999589, 45.178427], [3.3986273, 45.1785803], [3.3971533, 45.17872], [3.3957387, 45.1788417], [3.3945836, 45.1787283], [3.3936377, 45.178622], [3.3929709, 45.1785805], [3.3917522, 45.178643], [3.3916888, 45.1782943], [3.3916201, 45.1780912], [3.3915769, 45.1779361], [3.3915628, 45.1778633], [3.3915641, 45.1777942], [3.3915879, 45.1776539], [3.3916756, 45.1773556], [3.3916772, 45.1773188], [3.391656, 45.1772355], [3.3916368, 45.1771813], [3.3916168, 45.1771251], [3.3914588, 45.1767264], [3.3914581, 45.1766627], [3.391464, 45.1765946], [3.3915137, 45.1763985], [3.391608, 45.1761004], [3.3916816, 45.1757329], [3.3916925, 45.1754828], [3.3917505, 45.175237], [3.3917296, 45.1750703], [3.3917111, 45.1749034], [3.3916954, 45.1747365], [3.3916903, 45.1746751], [3.3916854, 45.1745623], [3.3916835, 45.1744495], [3.3916834, 45.1744194], [3.3916915, 45.1742701], [3.391829, 45.1740741], [3.3918714, 45.1739824], [3.3919192, 45.1738468], [3.3919228, 45.1738367], [3.3918919, 45.1738349], [3.3916483, 45.1738822], [3.3915606, 45.1738972], [3.391329, 45.1739216], [3.390986, 45.1739593], [3.390993, 45.1739458], [3.3912321, 45.1734895], [3.3912917, 45.1733758], [3.3915877, 45.1728051], [3.3917984, 45.1723954], [3.391842, 45.1723075], [3.3918436, 45.1722662], [3.3918391, 45.1722505], [3.3918254, 45.1722339], [3.3918094, 45.1722183], [3.3918018, 45.1722119], [3.3917135, 45.1721568], [3.3916626, 45.1721308], [3.3915999, 45.1721001], [3.3915475, 45.1719742], [3.3915137, 45.1718819], [3.3914773, 45.1717901], [3.3914622, 45.1717537], [3.3914595, 45.1717383], [3.391454, 45.1717161], [3.3913952, 45.1714763], [3.3913561, 45.1713081], [3.3913482, 45.1712774], [3.3913393, 45.171242], [3.391335, 45.1712255], [3.3913275, 45.1711962], [3.3913069, 45.1711055], [3.3912788, 45.1709882], [3.3912492, 45.1708665], [3.3912483, 45.1708629], [3.3911885, 45.1708329], [3.3911432, 45.1708171], [3.3910958, 45.1708095], [3.3910479, 45.1708039], [3.3910334, 45.1708026], [3.3910137, 45.1707972], [3.3909349, 45.1707407], [3.3909049, 45.1707191], [3.3908108, 45.1706699], [3.3907173, 45.1706212], [3.3906744, 45.1706006], [3.3906054, 45.1705631], [3.3905312, 45.1704963], [3.390455, 45.1704307], [3.3903766, 45.1703664], [3.3903557, 45.1703497], [3.3902375, 45.1702797], [3.3901682, 45.170243], [3.3901249, 45.1702253], [3.3899782, 45.1701616], [3.389825, 45.1700982], [3.389807, 45.1700907], [3.3897283, 45.1700694], [3.3896629, 45.1700605], [3.3895688, 45.1700566], [3.3895335, 45.1700533], [3.3894626, 45.1700388], [3.3894235, 45.1700187], [3.3894071, 45.1700049], [3.3893929, 45.169991], [3.3893817, 45.1699801], [3.3893588, 45.1699544], [3.3893407, 45.1699313], [3.3892397, 45.1698926], [3.3890888, 45.1698346], [3.3888356, 45.1697397], [3.3886011, 45.1696537], [3.3885864, 45.1696483], [3.3885179, 45.1696255], [3.3884481, 45.1696043], [3.3883717, 45.1695835], [3.3882811, 45.169616], [3.3882471, 45.1695625], [3.3881837, 45.1694503], [3.3881128, 45.1693309], [3.3880437, 45.1692245], [3.3879986, 45.1691429], [3.3879715, 45.1690938], [3.3879478, 45.1690507], [3.387947, 45.1690464], [3.3878959, 45.1690004], [3.3878636, 45.1689854], [3.3878246, 45.1689717], [3.3878072, 45.1689656], [3.3877826, 45.168957], [3.3877245, 45.1689376], [3.3877077, 45.1689267], [3.3877007, 45.1689211], [3.3876926, 45.1689144], [3.3876891, 45.1689112], [3.3876852, 45.1689054], [3.387673, 45.1688876], [3.3876567, 45.1688638], [3.3876379, 45.1688364], [3.3876265, 45.1688196], [3.387622, 45.1688131], [3.3876046, 45.1687878], [3.3875378, 45.1687024], [3.3875243, 45.1686923], [3.3874737, 45.1686547], [3.3874415, 45.1686308], [3.38739, 45.1685916], [3.3873725, 45.1685751], [3.3873556, 45.1685487], [3.3873256, 45.1684768], [3.3873081, 45.1684348], [3.3872843, 45.1683777], [3.3872539, 45.1683054], [3.3872239, 45.16827], [3.3871828, 45.1682247], [3.3871425, 45.1681802], [3.3870898, 45.168122], [3.3870449, 45.1680755], [3.3869623, 45.1679897], [3.3868606, 45.1678842], [3.3868463, 45.1678684], [3.3868224, 45.1678417], [3.3867308, 45.1677473], [3.3866672, 45.1676885], [3.3866056, 45.1676286], [3.3865883, 45.1676112], [3.3865671, 45.1675836], [3.386532, 45.1675278], [3.3864727, 45.1674336], [3.3864189, 45.1673506], [3.3864017, 45.167324], [3.3863902, 45.1673064], [3.3863759, 45.1672843], [3.3863467, 45.1672403], [3.3863189, 45.1671959], [3.3862811, 45.1671354], [3.3862302, 45.1670543], [3.3862224, 45.1670423], [3.3862064, 45.167018], [3.3861906, 45.1669938], [3.3861495, 45.1669309], [3.3861073, 45.1668756], [3.3860837, 45.1668444], [3.3860038, 45.1667393], [3.3858679, 45.1665641], [3.385715, 45.1663667], [3.385502, 45.1660925], [3.3854481, 45.1660254], [3.385402, 45.1659678], [3.3852943, 45.1658335], [3.3852671, 45.1658003], [3.3852515, 45.1657815], [3.3852379, 45.1657541], [3.3852266, 45.1657264], [3.3852188, 45.1657013], [3.3852109, 45.1656636], [3.3852064, 45.1656421], [3.3851625, 45.1654865], [3.3851309, 45.165378], [3.3850831, 45.1652138], [3.3850668, 45.16516], [3.385008, 45.1649645], [3.385001, 45.1649412], [3.3849704, 45.164842], [3.3850271, 45.1647811], [3.3850537, 45.1647607], [3.3850146, 45.164768], [3.3848496, 45.1648533], [3.3845561, 45.165011], [3.3844585, 45.1650467], [3.3840777, 45.1652024], [3.383968, 45.1652411], [3.3838892, 45.1652529], [3.3838059, 45.1652617], [3.3837219, 45.1652666], [3.3835803, 45.1652634], [3.3831928, 45.1652443], [3.3830312, 45.165238], [3.3829453, 45.1652365], [3.3827477, 45.1652355], [3.3825502, 45.1652383], [3.3824517, 45.1652354], [3.3821284, 45.165206], [3.3819948, 45.1651852], [3.3819072, 45.1651634], [3.3817524, 45.165114], [3.381616, 45.1650751], [3.3814054, 45.1649801], [3.3813053, 45.1649475], [3.3812849, 45.1649431], [3.3812154, 45.1649255], [3.3811482, 45.1649043], [3.380931, 45.164838], [3.3807252, 45.1648071], [3.3804613, 45.1650204], [3.3801709, 45.1648362], [3.3800484, 45.1649335], [3.3798533, 45.1650947], [3.3797386, 45.1651894], [3.379656, 45.1652576], [3.3796364, 45.1651906], [3.3796072, 45.1651476], [3.3795465, 45.1650774], [3.379503, 45.1650246], [3.3794702, 45.1649847], [3.3794607, 45.1649732], [3.379448, 45.1649576], [3.3793944, 45.1648881], [3.3793685, 45.1648546], [3.379354, 45.1648358], [3.3793117, 45.1648183], [3.3792783, 45.1647353], [3.3788678, 45.1644351], [3.3786816, 45.1641051], [3.3786336, 45.163961], [3.3785934, 45.1638238], [3.3785265, 45.163731], [3.3782967, 45.1635763], [3.3780012, 45.1633823], [3.3777022, 45.1631911], [3.3775265, 45.1630656], [3.3774989, 45.1630217], [3.3774621, 45.1628609], [3.3774511, 45.162766], [3.3774719, 45.1626902], [3.3774452, 45.1626037], [3.3773907, 45.162547], [3.3772437, 45.1625174], [3.3771023, 45.1625115], [3.3768143, 45.1625331], [3.3765903, 45.1625297], [3.376291, 45.1624772], [3.376156, 45.1624633], [3.3760734, 45.162479], [3.3759651, 45.1625224], [3.3759314, 45.1625406], [3.3758431, 45.1625846], [3.375752, 45.1626256], [3.3755719, 45.1627774], [3.3755866, 45.1628035], [3.3756227, 45.1628986], [3.3756701, 45.1630053], [3.3756957, 45.163086], [3.3757592, 45.1632844], [3.3757923, 45.1633762], [3.3758629, 45.1635328], [3.3759051, 45.1635996], [3.3759593, 45.163674], [3.3759196, 45.1637233], [3.3758751, 45.1637514], [3.3758376, 45.1637575], [3.3758283, 45.1637682], [3.3758222, 45.1637751], [3.3757782, 45.163762], [3.3755554, 45.1636953], [3.3752249, 45.1635493], [3.3744672, 45.1634202], [3.3744577, 45.1634356], [3.3742227, 45.1636503], [3.3742071, 45.1636647], [3.3740516, 45.1638068], [3.3738971, 45.1639479], [3.3737333, 45.1641006], [3.3736062, 45.1642194], [3.3733921, 45.1644152], [3.3732024, 45.1645892], [3.3729479, 45.1648223], [3.3729443, 45.1648256], [3.3729606, 45.1650099], [3.3729861, 45.1651938], [3.3729886, 45.1652116], [3.373017, 45.1652027], [3.3730623, 45.1652689], [3.3731267, 45.1653741], [3.3731957, 45.1654867], [3.3732663, 45.1656068], [3.3733343, 45.1657223], [3.3734329, 45.1658803], [3.3734753, 45.1660175], [3.3735009, 45.1661036], [3.3734508, 45.1661198], [3.3732779, 45.1661753], [3.3731279, 45.1662204], [3.3730759, 45.1662359], [3.3730423, 45.166255], [3.3729661, 45.1662983], [3.3728924, 45.1663401], [3.3727401, 45.1664266], [3.372688, 45.1664562], [3.3725321, 45.1665669], [3.3724599, 45.1666345], [3.3723636, 45.166768], [3.3722928, 45.1668864], [3.3722453, 45.1669655], [3.3721626, 45.1671039], [3.3721518, 45.1671221], [3.3720368, 45.1673214], [3.3720045, 45.1673771], [3.371941, 45.1674865], [3.371842, 45.1676574], [3.3718223, 45.1676912], [3.3717888, 45.1677413], [3.371699, 45.1678518], [3.3716261, 45.1679422], [3.3715046, 45.1680928], [3.371315, 45.1683357], [3.3712077, 45.1684646], [3.371177, 45.1684859], [3.3711595, 45.1685017], [3.3709604, 45.1682056], [3.3706213, 45.1683136], [3.3704421, 45.1683995], [3.3703791, 45.1684108], [3.3703137, 45.1683975], [3.3702182, 45.1683526], [3.3699926, 45.1682731], [3.3695331, 45.1680548], [3.3693316, 45.1679669], [3.3692972, 45.1679578], [3.3690395, 45.1679083], [3.3689927, 45.1678994], [3.368654, 45.1678352], [3.3684827, 45.1678027], [3.3681218, 45.1677369], [3.3679682, 45.167709], [3.3679283, 45.1677016], [3.3678929, 45.1676953], [3.3678732, 45.1676916], [3.3676674, 45.1676351], [3.3674441, 45.1675785], [3.3674265, 45.1675768], [3.3672426, 45.1675586], [3.3668665, 45.1675264], [3.3667935, 45.1675179], [3.3667492, 45.1675086], [3.3667306, 45.1674988], [3.3665836, 45.1674457], [3.3664533, 45.1673943], [3.3662305, 45.1673047], [3.3660595, 45.167236], [3.3656684, 45.1670743], [3.3655499, 45.1670316], [3.3654401, 45.1670144], [3.3654021, 45.1670161], [3.3652303, 45.1670373], [3.3649221, 45.1670852], [3.3647314, 45.1671222], [3.3647282, 45.167134], [3.3647022, 45.1672265], [3.3646348, 45.1673237], [3.3645941, 45.1673615], [3.3644904, 45.1674267], [3.3644088, 45.1675021], [3.3643776, 45.1675399], [3.364323, 45.1676049], [3.3642829, 45.1676605], [3.3642022, 45.1677758], [3.3641687, 45.1678334], [3.3641026, 45.1679474], [3.3640063, 45.1681133], [3.3639704, 45.168169], [3.3639559, 45.168192], [3.3638843, 45.1683052], [3.3637905, 45.1684534], [3.3637595, 45.1685045], [3.3636729, 45.1686473], [3.3635855, 45.1687918], [3.3635098, 45.1689322], [3.3634339, 45.1690845], [3.3633898, 45.169173], [3.3633293, 45.1692941], [3.3633116, 45.1693296], [3.3632141, 45.1695213], [3.3631926, 45.1695636], [3.3631398, 45.1697043], [3.3631267, 45.1697393], [3.3630807, 45.1698621], [3.3629739, 45.1701468], [3.3629181, 45.1702917], [3.3628364, 45.170503], [3.3627643, 45.1706903], [3.3627527, 45.1707208], [3.3627179, 45.1708162], [3.3626229, 45.1710668], [3.3625227, 45.1713163], [3.3624933, 45.171395], [3.3624371, 45.1715452], [3.3623563, 45.1717618], [3.3623347, 45.1718186], [3.3622485, 45.1720439], [3.362202, 45.1721657], [3.3621508, 45.1722464], [3.3620064, 45.1721048], [3.3620004, 45.1720999], [3.3618916, 45.1720292], [3.3618238, 45.1719729], [3.3617954, 45.1719493], [3.3616907, 45.1718623], [3.3615896, 45.1717779], [3.3613876, 45.1716097], [3.3613174, 45.171551], [3.3612285, 45.1714774], [3.3611594, 45.1714192], [3.3611009, 45.1713705], [3.3610199, 45.1713032], [3.3608955, 45.1712008], [3.3607273, 45.171067], [3.3607087, 45.1710521], [3.3604941, 45.1708823], [3.3604049, 45.1708094], [3.3603086, 45.1707307], [3.3602725, 45.1707011], [3.3602177, 45.1706545], [3.3601413, 45.1705875], [3.360106, 45.1705564], [3.3599842, 45.1704518], [3.3599511, 45.1704209], [3.3598627, 45.1703379], [3.3597819, 45.1702617], [3.3597251, 45.1702082], [3.3596876, 45.1701696], [3.3596493, 45.1701284], [3.3595691, 45.1700403], [3.3595549, 45.1700246], [3.3594416, 45.1698954], [3.359353, 45.1698014], [3.3593477, 45.1697375], [3.3593532, 45.1696003], [3.3593429, 45.1695007], [3.3593394, 45.1694677], [3.3593318, 45.1693405], [3.3593295, 45.1692133], [3.3593486, 45.1690437], [3.3593609, 45.1689355], [3.35938, 45.1688357], [3.3594048, 45.1688107], [3.3594013, 45.1687589], [3.3593585, 45.1687337], [3.3592688, 45.1686859], [3.3587962, 45.1684349], [3.3587089, 45.1683883], [3.3584491, 45.1682498], [3.358236, 45.1681392], [3.357988, 45.1682195], [3.3579805, 45.1682243], [3.3579672, 45.1681376], [3.3579601, 45.1681387], [3.35763, 45.1682932], [3.3575575, 45.1683267], [3.3574585, 45.1683741], [3.3571646, 45.1685143], [3.3571182, 45.1685399], [3.3569834, 45.1686175], [3.3569824, 45.1686181], [3.3568518, 45.168698], [3.3568362, 45.1687026], [3.3568366, 45.1686643], [3.356835, 45.1685145], [3.356828, 45.1683647], [3.3568369, 45.1681383], [3.3568227, 45.1680344], [3.356803, 45.1679946], [3.3567398, 45.1678599], [3.3566816, 45.1677241], [3.3566718, 45.1676257], [3.3566866, 45.1675002], [3.3566815, 45.1674816], [3.3566432, 45.1674638], [3.3565752, 45.167429], [3.3565733, 45.167428], [3.3565069, 45.1673892], [3.3564939, 45.1673478], [3.3564329, 45.1671513], [3.3559295, 45.1673284], [3.3557553, 45.1673918], [3.3555189, 45.1674777], [3.355489, 45.1672685], [3.3554843, 45.1672359], [3.355461, 45.1670724], [3.3554406, 45.166934], [3.3554568, 45.1666458], [3.3554578, 45.1666102], [3.3554611, 45.166569], [3.355464, 45.1665304], [3.3554704, 45.1664873], [3.3554758, 45.1664508], [3.3555085, 45.1662599], [3.3555133, 45.1661952], [3.3555136, 45.1661233], [3.3555085, 45.1660514], [3.3556937, 45.1660161], [3.3566007, 45.1658556], [3.3564019, 45.1656746], [3.3563503, 45.1656284], [3.3563004, 45.1655835], [3.3562083, 45.1655009], [3.3561502, 45.1654484], [3.3560335, 45.1653428], [3.3560022, 45.1653133], [3.3559224, 45.165238], [3.3556932, 45.1649393], [3.3556528, 45.1648838], [3.355602, 45.1648143], [3.3556015, 45.1648137], [3.3556009, 45.1648127], [3.3555405, 45.1647514], [3.3555327, 45.1647434], [3.3555081, 45.1647278], [3.3553391, 45.1645566], [3.3551963, 45.1644146], [3.3551945, 45.1644128], [3.3550331, 45.1642561], [3.3549983, 45.1642215], [3.3548794, 45.1641034], [3.3546984, 45.1639266], [3.3547099, 45.1639119], [3.354686, 45.1638915], [3.3546296, 45.1638477], [3.3545694, 45.1638067], [3.3542734, 45.1637526], [3.354147, 45.1637188], [3.3540009, 45.1636695], [3.3539346, 45.1636361], [3.3538969, 45.1636142], [3.3538284, 45.1635708], [3.3537636, 45.1635246], [3.3536955, 45.1634536], [3.3536591, 45.1633904], [3.3535093, 45.1631674], [3.353412, 45.1630523], [3.353348, 45.1630003], [3.3532204, 45.1629296], [3.3530514, 45.1628545], [3.3530035, 45.1628068], [3.3527014, 45.1627482], [3.3524373, 45.1626752], [3.352132, 45.1625944], [3.3518247, 45.1625172], [3.3518045, 45.1624833], [3.3521026, 45.1623263], [3.35227, 45.1622392], [3.3524274, 45.162147], [3.3526608, 45.1620061], [3.3528879, 45.1618692], [3.3530954, 45.1617443], [3.3531962, 45.1616831], [3.353054, 45.1615553], [3.3529755, 45.1614856], [3.3527993, 45.161322], [3.3526234, 45.1611619], [3.3525165, 45.1610601], [3.3525045, 45.1610484], [3.3524728, 45.1610145], [3.3524607, 45.1610055], [3.3524301, 45.1609595], [3.3525444, 45.1606767], [3.3525561, 45.1606532], [3.3525782, 45.1605922], [3.3526181, 45.1604879], [3.3526531, 45.1603966], [3.3527332, 45.1602019], [3.3529453, 45.160235], [3.3529708, 45.1602392], [3.3532852, 45.1602913], [3.3533563, 45.1603038], [3.3536239, 45.1603512], [3.3536548, 45.1603546], [3.3536585, 45.1603552], [3.3537668, 45.1603725], [3.3538001, 45.1603719], [3.3538062, 45.1603718], [3.3541167, 45.1604071], [3.3543241, 45.1604307], [3.3545064, 45.1604606], [3.3546725, 45.160495], [3.3548322, 45.1605239], [3.3549347, 45.1605233], [3.3550855, 45.1605236], [3.35524, 45.160524], [3.3554524, 45.1605272], [3.3555452, 45.1605286], [3.3555717, 45.1605271], [3.3556314, 45.1604708], [3.3556273, 45.160451], [3.3556214, 45.1603596], [3.3556223, 45.1601989], [3.3556227, 45.16013], [3.3556235, 45.1599937], [3.3556237, 45.1599345], [3.3556668, 45.1597259], [3.355679, 45.159655], [3.3556901, 45.159613], [3.3556959, 45.1595907], [3.3557181, 45.159527], [3.3558917, 45.1591497], [3.3559193, 45.1590603], [3.3559497, 45.1589787], [3.3559699, 45.158883], [3.3559904, 45.1587645], [3.356, 45.1587314], [3.3560297, 45.158665], [3.3560656, 45.1585891], [3.3560689, 45.1585292], [3.3560554, 45.1584261], [3.3560477, 45.1583391], [3.3560321, 45.1582549], [3.3560163, 45.1580626], [3.356007, 45.1580603], [3.355852, 45.1580224], [3.3557746, 45.1580024], [3.3557417, 45.1579918], [3.3557028, 45.1579706], [3.3556315, 45.1579037], [3.3555785, 45.1578568], [3.3555278, 45.1578121], [3.3554456, 45.1577442], [3.3553259, 45.1576473], [3.3552688, 45.1576013], [3.3552106, 45.1575541], [3.3550394, 45.1574153], [3.354942, 45.1573358], [3.3548436, 45.1572445], [3.3547531, 45.1571451], [3.3547424, 45.1571364], [3.3547297, 45.157125], [3.3547124, 45.1571105], [3.3546792, 45.157105], [3.354563, 45.1570901], [3.354399, 45.1570693], [3.3543427, 45.1570621], [3.3542486, 45.1570501], [3.3542216, 45.157047], [3.3541118, 45.1570342], [3.354051, 45.1570268], [3.3538787, 45.1570059], [3.3537049, 45.1569852], [3.3535742, 45.1569842], [3.3533479, 45.157], [3.3531512, 45.1570106], [3.3530102, 45.1570137], [3.3528838, 45.1570134], [3.3527581, 45.1570112], [3.3526382, 45.1570081], [3.3525886, 45.1569998], [3.3525418, 45.1569841], [3.3525025, 45.156968], [3.3523907, 45.1569158], [3.3522308, 45.1568417], [3.3521088, 45.1567903], [3.3520314, 45.1567519], [3.3519359, 45.1566991], [3.3518005, 45.1567753], [3.3516742, 45.1568545], [3.3515263, 45.1569458], [3.3513342, 45.1570615], [3.3511625, 45.1571651], [3.3510008, 45.1572623], [3.3508485, 45.1573526], [3.3507531, 45.1574078], [3.3506764, 45.1573731], [3.3505786, 45.1573259], [3.3506655, 45.1572375], [3.3507175, 45.1571881], [3.3507756, 45.1571314], [3.3508174, 45.1570915], [3.3508271, 45.1570725], [3.3506974, 45.1569894], [3.3506508, 45.1569595], [3.3505367, 45.1568859], [3.3506322, 45.1568367], [3.3507777, 45.1567657], [3.3508476, 45.1567309], [3.351024, 45.1566415], [3.3511226, 45.1565904], [3.3511663, 45.156566], [3.3511963, 45.1565497], [3.351096, 45.156498], [3.3510049, 45.1564097], [3.3509534, 45.1563061], [3.3509344, 45.156224], [3.3509315, 45.156088], [3.3509654, 45.1558755], [3.3510058, 45.155781], [3.3510654, 45.155706], [3.3511106, 45.1556654], [3.3511764, 45.1556302], [3.3512412, 45.1556051], [3.3514447, 45.1555776], [3.3515465, 45.1555485], [3.3515398, 45.1555419], [3.350643, 45.1552863], [3.3502729, 45.1552394], [3.3499824, 45.1551839], [3.3494033, 45.1551046], [3.3492481, 45.1552508], [3.3489522, 45.1554743], [3.3488588, 45.1555685], [3.348837, 45.1555498], [3.3487353, 45.1555226], [3.3487139, 45.1555168], [3.3485914, 45.1554799], [3.348471, 45.1554396], [3.3483506, 45.1553953], [3.3482215, 45.1553436], [3.348095, 45.1552887], [3.3477269, 45.1550796], [3.3474813, 45.1549049], [3.3474664, 45.1548894], [3.3474258, 45.1548504], [3.3474083, 45.1548334], [3.3473458, 45.1547796], [3.3472662, 45.1546975], [3.3470884, 45.1545053], [3.3465848, 45.1539734], [3.3464918, 45.1538752], [3.3464419, 45.1538222], [3.3463975, 45.1537756], [3.3463385, 45.1537744], [3.3463552, 45.1535002], [3.346399, 45.1534317], [3.346582, 45.1532098], [3.3466181, 45.153061], [3.3466783, 45.1527507], [3.3467422, 45.152537], [3.3467935, 45.1523368], [3.3468234, 45.1523037], [3.346899, 45.1522063], [3.3471119, 45.1520922], [3.3472838, 45.1520787], [3.3476635, 45.1520679], [3.3479919, 45.1520326], [3.3481137, 45.1519616], [3.3482373, 45.1518378], [3.3484828, 45.1515232], [3.3487599, 45.1513499], [3.3494235, 45.1509902], [3.3498042, 45.1508198], [3.3499111, 45.150794], [3.3506541, 45.1507281], [3.3508408, 45.1506652], [3.3509867, 45.1506526], [3.3513531, 45.1505325], [3.3519384, 45.1502812], [3.3522603, 45.1501008], [3.3523556, 45.1500864], [3.3526151, 45.1501251], [3.3527341, 45.1501673], [3.3531025, 45.1504796], [3.3533942, 45.1506256], [3.3538888, 45.1507881], [3.3541079, 45.1508263], [3.3547725, 45.1509373], [3.354674, 45.1508734], [3.3546549, 45.1508305], [3.3546373, 45.1507913], [3.3546261, 45.1507659], [3.3545987, 45.1506865], [3.3545886, 45.1506571], [3.3545693, 45.1506008], [3.3544756, 45.1504178], [3.3543424, 45.150237], [3.3542867, 45.1501613], [3.3541048, 45.1499061], [3.3540172, 45.1497679], [3.3538626, 45.1496143], [3.3537879, 45.1495403], [3.3536636, 45.1493215], [3.353403, 45.1489303], [3.3533462, 45.1488646], [3.3533214, 45.1488359], [3.353246, 45.148756], [3.3530963, 45.1486262], [3.3529512, 45.1485065], [3.3529138, 45.148481], [3.3533217, 45.148232], [3.3534932, 45.1481333], [3.3537396, 45.1479874], [3.3539826, 45.1478385], [3.3540158, 45.1478182], [3.3540179, 45.1478173], [3.354071, 45.147841], [3.3541676, 45.1477908], [3.3541242, 45.1477257], [3.3541147, 45.1477159], [3.3540467, 45.1476118], [3.3539869, 45.1475037], [3.3538976, 45.1473939], [3.3538448, 45.1473294], [3.353812, 45.1472894], [3.3537996, 45.1472743], [3.3537799, 45.1472502], [3.353714, 45.1471957], [3.3537023, 45.1471803], [3.3537499, 45.1470924], [3.3537909, 45.1470339], [3.353893, 45.14685], [3.3540102, 45.1466617], [3.3543738, 45.1460454], [3.3551569, 45.1447413], [3.354857, 45.1446875], [3.3548133, 45.1446859], [3.3544292, 45.1446594], [3.3544266, 45.1445889], [3.3544259, 45.1445374], [3.3544244, 45.1444262], [3.3544279, 45.1442634], [3.3544344, 45.14397], [3.3544375, 45.1436836], [3.3544407, 45.1434084], [3.3544438, 45.1431317], [3.3544462, 45.1429145], [3.35446, 45.142904], [3.3549007, 45.142835], [3.3549673, 45.142839], [3.3550528, 45.1428766], [3.3550944, 45.142867], [3.3552932, 45.1427529], [3.3554242, 45.1426655], [3.3556867, 45.1425373], [3.3558159, 45.1425003], [3.3559797, 45.1424835]]]]}, "properties": {"id": "43031", "nom": "BLASSAC", "created": "2014-12-05", "updated": "2024-09-16"}}, {"type": "Feature", "id": "43175", "geometry": {"type": "MultiPolygon", "coordinates": [[[[3.396166, 45.1129877], [3.3961985, 45.1129929], [3.3962825, 45.1130677], [3.3963553, 45.1131316], [3.396522, 45.1132785], [3.3966089, 45.1133508], [3.3967226, 45.1134424], [3.396834, 45.113532], [3.3969628, 45.1136345], [3.3970211, 45.1136809], [3.3970717, 45.1137214], [3.3972075, 45.1138269], [3.3973627, 45.113952], [3.3975057, 45.1140664], [3.3976273, 45.1141624], [3.3977735, 45.1142571], [3.3978714, 45.1143142], [3.3979453, 45.1143568], [3.3980178, 45.1143993], [3.3982206, 45.1145187], [3.3983853, 45.1146116], [3.3985603, 45.1147055], [3.3985972, 45.1147253], [3.3986756, 45.1147704], [3.3987323, 45.1148021], [3.3988562, 45.114877], [3.3988846, 45.1148942], [3.3989939, 45.1149607], [3.3991458, 45.1150437], [3.3992817, 45.1151107], [3.399395, 45.1151721], [3.39942, 45.1151858], [3.3994725, 45.1152168], [3.399517, 45.115243], [3.3996399, 45.1153197], [3.3996733, 45.1153404], [3.3997204, 45.1153705], [3.3997379, 45.1153824], [3.3998028, 45.1154253], [3.3998773, 45.1154743], [3.3999917, 45.1155497], [3.4001869, 45.115679], [3.4002631, 45.115729], [3.4005176, 45.1158963], [3.4005633, 45.115927], [3.4006705, 45.1159989], [3.4008465, 45.1161153], [3.4008762, 45.1161404], [3.4010563, 45.1160974], [3.4012293, 45.1160563], [3.4013411, 45.1160297], [3.4015335, 45.1159835], [3.4016779, 45.1159479], [3.4017378, 45.1159331], [3.4018181, 45.1159816], [3.4019205, 45.1160407], [3.4020699, 45.1161266], [3.4021884, 45.1161958], [3.4022947, 45.1162576], [3.4024004, 45.1163193], [3.4025555, 45.1164077], [3.4026885, 45.1164844], [3.4027439, 45.1165164], [3.4028662, 45.1165755], [3.4030354, 45.1166232], [3.403124, 45.1166306], [3.4031492, 45.1166496], [3.4040673, 45.1165151], [3.4040576, 45.1165359], [3.4039599, 45.1166885], [3.4038996, 45.116784], [3.4038229, 45.116909], [3.4037345, 45.1170483], [3.403666, 45.117158], [3.4035967, 45.1172682], [3.4035697, 45.1173113], [3.4034551, 45.1174949], [3.4033526, 45.1176594], [3.4032766, 45.1177815], [3.4032236, 45.117876], [3.4032194, 45.1179613], [3.403212, 45.1181132], [3.4032118, 45.1181569], [3.4032068, 45.118256], [3.4034317, 45.1183007], [3.4036488, 45.1183829], [3.4038511, 45.1184606], [3.404079, 45.1185473], [3.4042903, 45.1186273], [3.4044287, 45.1186799], [3.4044329, 45.1186813], [3.4044517, 45.1186874], [3.4046212, 45.1187311], [3.4046619, 45.1187412], [3.4047966, 45.1187625], [3.4048787, 45.1187746], [3.4050488, 45.1187998], [3.4051273, 45.1188725], [3.4052128, 45.1189541], [3.4052256, 45.1189658], [3.4053101, 45.1190441], [3.4053606, 45.1190885], [3.4054016, 45.1191138], [3.4054487, 45.1191425], [3.4055474, 45.1192012], [3.4055555, 45.1192057], [3.4056183, 45.1192417], [3.4056813, 45.1192778], [3.4057089, 45.1192935], [3.4057718, 45.1193294], [3.4059237, 45.1194165], [3.406006, 45.1194764], [3.4060484, 45.1195197], [3.4061236, 45.1195925], [3.4061443, 45.1196126], [3.4062088, 45.1196746], [3.4062583, 45.119725], [3.4063031, 45.1197972], [3.4064284, 45.1199947], [3.4065729, 45.1202254], [3.406636, 45.1203261], [3.4066666, 45.1203711], [3.4066893, 45.1203965], [3.4067301, 45.1204343], [3.406868, 45.1205604], [3.4068836, 45.1205747], [3.4069973, 45.1206778], [3.4070902, 45.1207342], [3.4071429, 45.1207645], [3.4072677, 45.1208366], [3.4072862, 45.1208471], [3.4073538, 45.1208858], [3.4074553, 45.1209439], [3.4074618, 45.1209477], [3.4076202, 45.1210365], [3.4076474, 45.1210521], [3.4078265, 45.1211546], [3.4080399, 45.1212757], [3.408277, 45.1214083], [3.4083433, 45.1214465], [3.4083883, 45.1214693], [3.4084319, 45.1214918], [3.4086233, 45.1215216], [3.4088262, 45.1215542], [3.4089965, 45.1215816], [3.4091188, 45.1216013], [3.4092105, 45.1216161], [3.409433, 45.1216516], [3.4095914, 45.1216761], [3.4096062, 45.1216785], [3.4097326, 45.1216993], [3.4098141, 45.1217119], [3.4099211, 45.1217283], [3.41003, 45.1217133], [3.4100962, 45.1217042], [3.4102445, 45.1216829], [3.4103243, 45.1216716], [3.4104809, 45.1216487], [3.4105899, 45.1216327], [3.4107015, 45.1216168], [3.4108896, 45.1215904], [3.4110051, 45.121574], [3.4112879, 45.1215336], [3.4112917, 45.121533], [3.4115283, 45.1214987], [3.411549, 45.1214957], [3.4117375, 45.1214035], [3.4118514, 45.1213494], [3.4121883, 45.1211897], [3.4122471, 45.1211619], [3.4125445, 45.1210203], [3.4127931, 45.1209022], [3.4129605, 45.1208228], [3.4131787, 45.121048], [3.413308, 45.1211815], [3.413473, 45.1213541], [3.4135517, 45.1214383], [3.4135706, 45.1214602], [3.4136157, 45.1215274], [3.4136369, 45.1215597], [3.4136693, 45.1216089], [3.4137632, 45.1217519], [3.4138133, 45.1218328], [3.4138559, 45.1218976], [3.4138914, 45.1219521], [3.4139708, 45.1220743], [3.4140702, 45.1222298], [3.4141373, 45.1223339], [3.4141922, 45.1224196], [3.4142241, 45.1224687], [3.4143264, 45.1226262], [3.4143862, 45.1227179], [3.4144471, 45.1228097], [3.4145563, 45.1229767], [3.4146417, 45.1231099], [3.414742, 45.1232608], [3.414728, 45.1232729], [3.4146112, 45.1233654], [3.4144782, 45.1234714], [3.41438, 45.1235481], [3.4146329, 45.1236989], [3.4148025, 45.1237995], [3.4150703, 45.1239569], [3.4151094, 45.12398], [3.4152637, 45.1240714], [3.4154581, 45.124187], [3.4155449, 45.1242381], [3.4158007, 45.1243885], [3.4159395, 45.1244706], [3.4159741, 45.1245046], [3.41604, 45.1245406], [3.4161829, 45.124552], [3.4162829, 45.1245643], [3.4163494, 45.1245923], [3.4165719, 45.1247867], [3.4167373, 45.1248944], [3.4169677, 45.1250032], [3.4172332, 45.1251431], [3.4175426, 45.1252771], [3.4175348, 45.1252823], [3.4175036, 45.1255494], [3.418155, 45.1257385], [3.4181547, 45.1256953], [3.4182149, 45.1253401], [3.4182332, 45.1252301], [3.4183089, 45.125157], [3.4183561, 45.1247968], [3.4184005, 45.1245045], [3.4185241, 45.1245462], [3.4187246, 45.1245975], [3.419036, 45.1246785], [3.4192342, 45.1247295], [3.4194598, 45.1247871], [3.4197541, 45.1248636], [3.4199465, 45.1249134], [3.4200977, 45.1249501], [3.420173, 45.1249487], [3.4202443, 45.1249476], [3.4202694, 45.1249367], [3.4203066, 45.1249225], [3.4204149, 45.1248683], [3.4205126, 45.1248176], [3.4207, 45.1247602], [3.4207525, 45.1247508], [3.4209361, 45.1247117], [3.4212811, 45.1246387], [3.4216268, 45.1245643], [3.4219379, 45.1244964], [3.4220838, 45.124465], [3.4222154, 45.1245158], [3.4224263, 45.124597], [3.4225812, 45.1246588], [3.4227182, 45.1247181], [3.4227249, 45.1247211], [3.4228844, 45.1248101], [3.4229831, 45.1248634], [3.4230374, 45.1248928], [3.4231645, 45.1249612], [3.4230073, 45.1251312], [3.4229375, 45.1252195], [3.4227609, 45.1254514], [3.422819, 45.1254996], [3.4229091, 45.1255745], [3.422984, 45.1256367], [3.4231787, 45.1260703], [3.4232163, 45.1261468], [3.4232416, 45.126367], [3.4232419, 45.1263968], [3.4232447, 45.1264136], [3.4231811, 45.1266422], [3.4231802, 45.1266526], [3.42318, 45.1266942], [3.4231839, 45.1267258], [3.4231851, 45.1267356], [3.4231956, 45.1267765], [3.4232223, 45.1268387], [3.4232353, 45.126869], [3.4232674, 45.1269346], [3.4232803, 45.1269609], [3.4233304, 45.1270517], [3.4233616, 45.1270946], [3.4233884, 45.1271315], [3.4235089, 45.1272446], [3.4235335, 45.1272676], [3.4233705, 45.1273288], [3.4230997, 45.1274305], [3.4229612, 45.127486], [3.4226598, 45.1276005], [3.4225754, 45.1276325], [3.4224402, 45.1276839], [3.4218166, 45.1279205], [3.4215989, 45.1280032], [3.4216337, 45.1280315], [3.4218006, 45.1281451], [3.4219408, 45.1282617], [3.4219593, 45.1282748], [3.4219933, 45.1282964], [3.4220108, 45.1283076], [3.4220657, 45.1283375], [3.4221231, 45.1283836], [3.4221524, 45.1284071], [3.4222057, 45.128442], [3.422511, 45.1286228], [3.4226476, 45.1288312], [3.4226836, 45.1288481], [3.4227354, 45.1288727], [3.4227548, 45.1288957], [3.4228025, 45.1289524], [3.4225701, 45.1292801], [3.4225509, 45.1293069], [3.4223115, 45.1296528], [3.4221387, 45.129915], [3.4220528, 45.1300324], [3.421867, 45.1303061], [3.4217185, 45.1305183], [3.421672, 45.1305848], [3.4216332, 45.1306404], [3.4216225, 45.1306593], [3.4215583, 45.1307734], [3.4215529, 45.130783], [3.4214923, 45.1309015], [3.4214387, 45.1309892], [3.4214383, 45.1310654], [3.421441, 45.1311157], [3.421443, 45.131226], [3.4214395, 45.1313363], [3.4213796, 45.1314204], [3.421302, 45.131529], [3.4212725, 45.131612], [3.4212573, 45.1316548], [3.421233, 45.1317229], [3.421224, 45.1317596], [3.4212238, 45.1317606], [3.4212199, 45.1317989], [3.4212274, 45.1318326], [3.4212445, 45.1318929], [3.4212462, 45.1318989], [3.4212701, 45.1319643], [3.4212745, 45.1319703], [3.4213156, 45.1320272], [3.4213836, 45.1321212], [3.4214436, 45.1322042], [3.4214469, 45.1322189], [3.4214649, 45.1322943], [3.4214683, 45.1323086], [3.4214844, 45.132399], [3.4214953, 45.1324898], [3.421516, 45.1326935], [3.4214976, 45.1327195], [3.4214695, 45.1327544], [3.4214013, 45.1328339], [3.4213791, 45.1328574], [3.4213284, 45.1329113], [3.4212925, 45.1330276], [3.4212588, 45.1331458], [3.4212559, 45.133159], [3.4212439, 45.1332004], [3.4212265, 45.1332409], [3.4212041, 45.1332801], [3.4211789, 45.1333057], [3.4211468, 45.1333385], [3.4210726, 45.1333973], [3.4209962, 45.1334361], [3.4209279, 45.1334719], [3.4208349, 45.1335206], [3.4206332, 45.1336277], [3.42059, 45.1336474], [3.4205039, 45.1336832], [3.4204153, 45.1337157], [3.4202764, 45.1337529], [3.4201901, 45.1337758], [3.4201141, 45.1338033], [3.4200191, 45.1338651], [3.4199613, 45.1339262], [3.4199375, 45.1339287], [3.4198498, 45.134027], [3.4197006, 45.1341983], [3.4196327, 45.1346811], [3.4196304, 45.1347638], [3.4197072, 45.1349855], [3.4197495, 45.1350873], [3.4198003, 45.1351541], [3.4200279, 45.1354097], [3.4206092, 45.1359581], [3.4210138, 45.1363638], [3.4211309, 45.1364628], [3.4213062, 45.1366177], [3.4213529, 45.1366563], [3.4213435, 45.1366936], [3.4214439, 45.1368354], [3.4215234, 45.1369411], [3.4215489, 45.1369753], [3.4216128, 45.1370567], [3.4216849, 45.1371337], [3.4218196, 45.1372983], [3.4218715, 45.1373599], [3.4219412, 45.1374057], [3.4220813, 45.1374866], [3.4221075, 45.137472], [3.4221173, 45.1374778], [3.4222928, 45.1375803], [3.4225546, 45.137756], [3.4228893, 45.1380031], [3.4230931, 45.1381903], [3.4232762, 45.138386], [3.4233539, 45.1385007], [3.4233899, 45.1385726], [3.4234977, 45.1387408], [3.4235335, 45.1388376], [3.4235503, 45.1390069], [3.4236367, 45.1391949], [3.4238917, 45.1394821], [3.4238439, 45.1395137], [3.4237199, 45.139648], [3.4235351, 45.1398477], [3.4234673, 45.1399178], [3.4233758, 45.1400136], [3.4232097, 45.1401881], [3.4231311, 45.1402675], [3.4230701, 45.1403331], [3.4230029, 45.1403988], [3.4229316, 45.1404654], [3.4228971, 45.1404985], [3.4228472, 45.1405558], [3.4228088, 45.140597], [3.4227699, 45.140652], [3.4227171, 45.1407432], [3.4226704, 45.1408331], [3.422627, 45.1409023], [3.4225724, 45.1409826], [3.4224992, 45.1411135], [3.4224736, 45.1411752], [3.4224489, 45.1412361], [3.4223714, 45.141449], [3.4223165, 45.1415824], [3.4222435, 45.1417516], [3.4222063, 45.1418511], [3.422114, 45.1420442], [3.4220444, 45.1421418], [3.4219235, 45.1421205], [3.4219005, 45.1421165], [3.4217848, 45.1420959], [3.4217401, 45.142088], [3.4216584, 45.1420728], [3.4214315, 45.1420302], [3.4212517, 45.1419969], [3.4211291, 45.141974], [3.4210616, 45.1419614], [3.4209695, 45.1420862], [3.4208575, 45.142244], [3.4208251, 45.1422904], [3.4206815, 45.1424926], [3.4206534, 45.1425325], [3.4206238, 45.1425842], [3.4206169, 45.1426162], [3.4205812, 45.1427418], [3.4205464, 45.1428829], [3.4205169, 45.1430247], [3.4204927, 45.143167], [3.4204891, 45.1434708], [3.420479, 45.1435182], [3.4204555, 45.1435808], [3.4204006, 45.1436596], [3.4203099, 45.1437485], [3.4202952, 45.1437902], [3.4202699, 45.1438738], [3.4202498, 45.143958], [3.4202189, 45.1441147], [3.4202151, 45.1441675], [3.4202341, 45.1442462], [3.420249, 45.1443619], [3.4202484, 45.1444165], [3.4201715, 45.1445369], [3.4201221, 45.1446111], [3.4200068, 45.1447638], [3.4199009, 45.1449127], [3.4198629, 45.1449824], [3.4198238, 45.1450565], [3.419806, 45.1450977], [3.4196122, 45.1455466], [3.4187877, 45.1452992], [3.4176293, 45.1451078], [3.4162834, 45.1450719], [3.4149655, 45.1450833], [3.4142149, 45.1451529], [3.4134615, 45.1452262], [3.4120919, 45.1454832], [3.4114737, 45.1457156], [3.410973, 45.1461339], [3.4103045, 45.1467847], [3.410225, 45.1473086], [3.4099981, 45.147693], [3.4093806, 45.1481303], [3.4088139, 45.1486896], [3.4082318, 45.148933], [3.4069652, 45.1491473], [3.4059991, 45.1490872], [3.4054134, 45.1488065], [3.4043932, 45.1482972], [3.4038246, 45.1479338], [3.4035197, 45.1473663], [3.4032006, 45.1471098], [3.4027428, 45.1468628], [3.4017811, 45.1468575], [3.4013777, 45.1466997], [3.4013475, 45.1466868], [3.401248, 45.1466461], [3.4012095, 45.146631], [3.4011641, 45.1466131], [3.4011528, 45.146615], [3.4010619, 45.1465946], [3.4009723, 45.1465717], [3.4009596, 45.1465685], [3.4008268, 45.1465357], [3.4004377, 45.1464391], [3.4000017, 45.146335], [3.3999821, 45.1463717], [3.3998015, 45.1464623], [3.3997381, 45.1464795], [3.3995619, 45.1464998], [3.3995429, 45.1465021], [3.3994607, 45.1464964], [3.3992463, 45.1464383], [3.3990542, 45.1464351], [3.3989396, 45.1464194], [3.3986892, 45.1464146], [3.3985843, 45.1464127], [3.3982339, 45.1463631], [3.3981891, 45.1463715], [3.3976891, 45.146429], [3.3976491, 45.1464336], [3.3973457, 45.1464686], [3.3968627, 45.1465242], [3.396832, 45.1465288], [3.3967993, 45.1465184], [3.3965774, 45.146664], [3.3962291, 45.1468367], [3.3960999, 45.1469002], [3.3960295, 45.1469471], [3.3959587, 45.1469921], [3.3953615, 45.1471031], [3.3949751, 45.1473246], [3.3948435, 45.1473865], [3.3947585, 45.1474024], [3.3943233, 45.1473507], [3.3940786, 45.147325], [3.3937946, 45.1472993], [3.3934194, 45.1472497], [3.3931638, 45.1471937], [3.3929121, 45.1471254], [3.3925514, 45.1469739], [3.3924058, 45.1469511], [3.3922528, 45.1469595], [3.3920198, 45.1470468], [3.3918513, 45.1471425], [3.3915004, 45.1472073], [3.3911429, 45.1472447], [3.3908847, 45.1471914], [3.390506, 45.1471478], [3.3901309, 45.1470757], [3.3897787, 45.1470815], [3.3893208, 45.1470666], [3.3885086, 45.1470039], [3.3878778, 45.1469652], [3.3876387, 45.1469891], [3.3871262, 45.1470555], [3.3863169, 45.1473054], [3.3860025, 45.1473586], [3.3855796, 45.1474103], [3.3854184, 45.1474769], [3.385267, 45.1474827], [3.3846028, 45.1477624], [3.3844144, 45.1478001], [3.3843304, 45.1478169], [3.3842331, 45.1478027], [3.383999, 45.1477222], [3.3837427, 45.1478089], [3.3836409, 45.1478224], [3.383351, 45.1477732], [3.383174, 45.1477209], [3.3827787, 45.1475584], [3.3826251, 45.1475047], [3.3822876, 45.1473321], [3.3822146, 45.1473092], [3.3821142, 45.1473169], [3.3820847, 45.1473397], [3.3820158, 45.1473977], [3.3817919, 45.1475786], [3.3816513, 45.1476456], [3.3814401, 45.147729], [3.3811938, 45.1479013], [3.3810214, 45.1479911], [3.3808609, 45.1480424], [3.3806878, 45.1480675], [3.3805912, 45.1480485], [3.3805339, 45.1479945], [3.380468, 45.147748], [3.3804378, 45.1476676], [3.3801786, 45.1473886], [3.3799633, 45.1473595], [3.379827, 45.1473373], [3.3794015, 45.1472394], [3.3789906, 45.1472006], [3.3788419, 45.1471695], [3.3788021, 45.1471452], [3.378804, 45.147056], [3.3787837, 45.1469789], [3.3787239, 45.1469005], [3.3785921, 45.1467854], [3.3782442, 45.1465784], [3.3774088, 45.1462086], [3.3772946, 45.1461635], [3.3771459, 45.146115], [3.3761835, 45.1457227], [3.3761684, 45.1456966], [3.3760939, 45.1456478], [3.3759402, 45.1456098], [3.3757392, 45.1455161], [3.3754415, 45.1453525], [3.3751743, 45.1452487], [3.375049, 45.1452201], [3.3747098, 45.1451268], [3.3745906, 45.1450736], [3.3741123, 45.1448457], [3.3739311, 45.1447831], [3.3736006, 45.1446805], [3.3732356, 45.1446407], [3.3729227, 45.1446428], [3.3722605, 45.1445873], [3.371797, 45.1445364], [3.3711694, 45.1444861], [3.3706415, 45.1444885], [3.3703398, 45.1444931], [3.3699654, 45.1445595], [3.3695618, 45.1446637], [3.3692022, 45.1447434], [3.3689734, 45.1448185], [3.368911, 45.1448489], [3.3688435, 45.1448994], [3.3686664, 45.14511], [3.3685297, 45.1452369], [3.3684821, 45.1452892], [3.3684287, 45.1453644], [3.3683882, 45.1454051], [3.3682886, 45.1454619], [3.3681453, 45.1455118], [3.367998, 45.1456067], [3.3679058, 45.1456388], [3.3678478, 45.1456226], [3.3678675, 45.1455808], [3.3679283, 45.1455569], [3.3679872, 45.1455358], [3.3679607, 45.1455136], [3.3678575, 45.1454745], [3.3678466, 45.1454695], [3.3677286, 45.1453959], [3.3676821, 45.1453462], [3.3676655, 45.1451362], [3.3675011, 45.1450098], [3.3674056, 45.1447815], [3.3673404, 45.1447084], [3.3671401, 45.1446309], [3.3669559, 45.1445219], [3.3668159, 45.1444754], [3.3666642, 45.1444559], [3.3664883, 45.1444546], [3.3663107, 45.1444983], [3.3660158, 45.14459], [3.3656346, 45.1446596], [3.3654436, 45.1447227], [3.3652278, 45.1448237], [3.3651193, 45.1448996], [3.364872, 45.1451216], [3.3647808, 45.1451658], [3.3647327, 45.1451755], [3.364709, 45.1451752], [3.3646694, 45.1451699], [3.3646241, 45.1451433], [3.3646079, 45.1450897], [3.3646546, 45.1449099], [3.3647276, 45.1447332], [3.3644032, 45.1446434], [3.3640921, 45.144572], [3.3636143, 45.1445303], [3.3633512, 45.1444806], [3.3627321, 45.1443464], [3.3625176, 45.1443508], [3.3623052, 45.1443709], [3.3620139, 45.1444302], [3.3617215, 45.1445043], [3.3615611, 45.144574], [3.3613459, 45.1447417], [3.3611438, 45.1448731], [3.3607759, 45.1450357], [3.3604635, 45.1451847], [3.3603801, 45.1452403], [3.3602914, 45.1453314], [3.3601621, 45.1454999], [3.3600944, 45.1455998], [3.3599246, 45.1461279], [3.3598618, 45.146175], [3.3597865, 45.1461987], [3.3597737, 45.1461938], [3.3596279, 45.1458852], [3.3595786, 45.1458285], [3.3594859, 45.1457497], [3.3593975, 45.1456809], [3.3592151, 45.1455429], [3.3590287, 45.1454077], [3.3590122, 45.1453958], [3.3590687, 45.1453205], [3.3590914, 45.1453047], [3.359138, 45.1452763], [3.359188, 45.1452509], [3.3592456, 45.1452128], [3.3592809, 45.1451702], [3.3593096, 45.14512], [3.3593205, 45.1449749], [3.3594259, 45.1448249], [3.3594842, 45.1447216], [3.3594891, 45.1446685], [3.3595011, 45.1445544], [3.3595346, 45.1444367], [3.3595418, 45.144415], [3.3595649, 45.1443479], [3.3595918, 45.1442786], [3.3595981, 45.1442644], [3.3596328, 45.1441792], [3.3596535, 45.1441437], [3.359703, 45.1440929], [3.3597563, 45.1440404], [3.3597965, 45.1440036], [3.3596649, 45.1439504], [3.3596409, 45.1439409], [3.3595282, 45.1438955], [3.3594428, 45.1438619], [3.3586529, 45.1435491], [3.358515, 45.1434956], [3.3584452, 45.1434712], [3.3585898, 45.1433963], [3.3588134, 45.1432821], [3.3587928, 45.1432775], [3.3584308, 45.1432384], [3.3580729, 45.1431987], [3.357739, 45.1431607], [3.3577197, 45.1431587], [3.3574952, 45.1431342], [3.357404, 45.1431242], [3.3574642, 45.1426525], [3.3574853, 45.1425021], [3.3574624, 45.142502], [3.3573782, 45.142507], [3.3573187, 45.1425123], [3.3572901, 45.142514], [3.3571693, 45.1425072], [3.3570379, 45.1424901], [3.3570203, 45.1424915], [3.3568892, 45.1425022], [3.356662, 45.1425201], [3.3563619, 45.1425439], [3.3562684, 45.1425374], [3.3561059, 45.1425089], [3.3561027, 45.1425041], [3.3559659, 45.142356], [3.3560154, 45.1423132], [3.3560457, 45.1422869], [3.3561483, 45.1421927], [3.356165, 45.1421765], [3.3562468, 45.1420963], [3.3563249, 45.1420299], [3.3569746, 45.1418609], [3.3572018, 45.1418019], [3.3570349, 45.1417296], [3.3568625, 45.1416595], [3.3568422, 45.1416518], [3.3566874, 45.1415927], [3.3567085, 45.1415534], [3.3567419, 45.1415005], [3.35678, 45.1414494], [3.3568228, 45.1414001], [3.3568955, 45.1413348], [3.3569591, 45.1412964], [3.3570204, 45.1412649], [3.3570477, 45.1412586], [3.3571553, 45.1412365], [3.3572641, 45.1412181], [3.357289, 45.1412155], [3.3573845, 45.1412081], [3.3574063, 45.1412073], [3.3574559, 45.1412054], [3.3574666, 45.141205], [3.3574804, 45.1412045], [3.3577699, 45.1411936], [3.3577828, 45.1411956], [3.358024, 45.1412315], [3.3583565, 45.1412801], [3.3584035, 45.1412878], [3.3585163, 45.1413038], [3.3585725, 45.1413117], [3.3587207, 45.1413367], [3.3587815, 45.1413491], [3.3588118, 45.141357], [3.358848, 45.1413664], [3.3589124, 45.1413871], [3.3589539, 45.1414089], [3.3592837, 45.1414827], [3.3593656, 45.1414841], [3.3594278, 45.1414835], [3.3594839, 45.141483], [3.359602, 45.141478], [3.359684, 45.1414658], [3.3599921, 45.14142], [3.3600583, 45.1414067], [3.3600804, 45.1414015], [3.3601539, 45.1413841], [3.3602477, 45.1413579], [3.3602635, 45.1413463], [3.3601383, 45.1413381], [3.3598175, 45.1412383], [3.3595087, 45.1411313], [3.3593233, 45.1410405], [3.3591383, 45.1409312], [3.3590403, 45.140853], [3.3589758, 45.1407805], [3.3588347, 45.1406432], [3.3586132, 45.1404374], [3.3583867, 45.1402055], [3.3582481, 45.1400749], [3.35814, 45.1399931], [3.3578465, 45.1398051], [3.3576611, 45.1396603], [3.3575594, 45.1395516], [3.3575431, 45.1394882], [3.3576549, 45.1394222], [3.3576095, 45.1393413], [3.3576779, 45.1392947], [3.3577326, 45.139302], [3.3577591, 45.1393091], [3.3577427, 45.1392706], [3.357733, 45.1392339], [3.3577286, 45.1391967], [3.3576841, 45.139095], [3.3575795, 45.1388923], [3.3575451, 45.1388626], [3.3574197, 45.1388262], [3.3572539, 45.1387984], [3.3572003, 45.1387819], [3.3571492, 45.1387538], [3.3571193, 45.1387199], [3.3570936, 45.1386614], [3.3570496, 45.1386234], [3.356995, 45.1385997], [3.3569149, 45.1385766], [3.3568484, 45.138553], [3.3567843, 45.138526], [3.3566805, 45.138466], [3.3566119, 45.1384144], [3.3565843, 45.1383645], [3.3566158, 45.138346], [3.3567706, 45.138312], [3.3567881, 45.1382933], [3.3567922, 45.1382604], [3.3567473, 45.1382107], [3.3566708, 45.1381741], [3.3566011, 45.1381474], [3.3565264, 45.138123], [3.3564496, 45.1381022], [3.3563914, 45.1380817], [3.3562796, 45.1380388], [3.3561704, 45.1379928], [3.3561316, 45.1379682], [3.3560626, 45.137867], [3.3560089, 45.1378277], [3.355837, 45.1377959], [3.3557372, 45.1378144], [3.3556231, 45.1377989], [3.3555086, 45.1378145], [3.3554052, 45.1378133], [3.3553164, 45.1378005], [3.3552197, 45.1377877], [3.3551588, 45.1377797], [3.3549019, 45.1377484], [3.3548316, 45.1377616], [3.3546506, 45.1377926], [3.3544686, 45.13782], [3.354302, 45.1377647], [3.3540808, 45.1377553], [3.3537488, 45.137772], [3.3529903, 45.1379546], [3.3525602, 45.138018], [3.3523156, 45.138085], [3.3521368, 45.138164], [3.3520268, 45.1382057], [3.3518908, 45.1382509], [3.3517996, 45.1382918], [3.3516858, 45.1383178], [3.3516108, 45.1383334], [3.3514911, 45.1383727], [3.3513573, 45.1384542], [3.3512408, 45.1384992], [3.3510007, 45.1384892], [3.3508547, 45.1385186], [3.3507021, 45.1385946], [3.3506098, 45.1386298], [3.3503045, 45.1386497], [3.3501878, 45.1386411], [3.3501688, 45.1386449], [3.3501239, 45.1386567], [3.3500811, 45.1386721], [3.3500409, 45.1386907], [3.3499199, 45.1386955], [3.349794, 45.1387204], [3.3497673, 45.1387444], [3.3497256, 45.1387992], [3.349625, 45.1388746], [3.3494894, 45.138878], [3.3493116, 45.1387688], [3.3492189, 45.138752], [3.3490508, 45.1387584], [3.3487839, 45.1386995], [3.3487482, 45.1386828], [3.3486788, 45.1386541], [3.3486067, 45.1386287], [3.3485327, 45.1386069], [3.3482683, 45.1385503], [3.3481117, 45.1384693], [3.3478984, 45.1383101], [3.3477859, 45.1382358], [3.3475901, 45.1381947], [3.3472707, 45.1381514], [3.3468997, 45.1380756], [3.3467772, 45.1380882], [3.3464304, 45.1381033], [3.3462856, 45.1381194], [3.3462166, 45.1381655], [3.346121, 45.1382205], [3.3460591, 45.1382564], [3.3458584, 45.1383496], [3.3457095, 45.1384423], [3.3455617, 45.1385292], [3.3454106, 45.1386132], [3.3453077, 45.1386573], [3.3451383, 45.138708], [3.344947, 45.1388003], [3.3446961, 45.1389347], [3.3446123, 45.1389723], [3.3445086, 45.1390007], [3.3443288, 45.1390131], [3.3440106, 45.1390654], [3.3438117, 45.139106], [3.3436209, 45.1391409], [3.3434225, 45.1391459], [3.3433262, 45.1391697], [3.3432968, 45.1391733], [3.3431435, 45.1392042], [3.3430215, 45.1392105], [3.3429457, 45.1391995], [3.342833, 45.1391552], [3.342712, 45.1391385], [3.3425606, 45.1391472], [3.342445, 45.1391371], [3.3423575, 45.1391209], [3.3423, 45.1391045], [3.3422059, 45.1390691], [3.3421225, 45.1390347], [3.342, 45.1390176], [3.3418747, 45.138986], [3.3417286, 45.1389102], [3.3415344, 45.1387705], [3.3414312, 45.1386918], [3.3413319, 45.1386105], [3.341237, 45.1385268], [3.3410639, 45.138393], [3.3409281, 45.1383057], [3.3407887, 45.1382214], [3.3407154, 45.138179], [3.340621, 45.1380672], [3.3403371, 45.137782], [3.3402737, 45.1377324], [3.3398885, 45.1374884], [3.3397811, 45.1373778], [3.339697, 45.1373204], [3.3395282, 45.1372598], [3.339443, 45.1372139], [3.3390988, 45.1369762], [3.3390386, 45.1369467], [3.3389321, 45.1369098], [3.3388775, 45.1368995], [3.3386887, 45.1368943], [3.3385153, 45.1368935], [3.3384291, 45.1368833], [3.3381646, 45.1367935], [3.3379422, 45.1366944], [3.3378456, 45.1366619], [3.33768, 45.1366238], [3.3375843, 45.1366181], [3.3374492, 45.1366233], [3.3372265, 45.1366597], [3.3370793, 45.1366743], [3.3369751, 45.1366778], [3.3368706, 45.1366774], [3.3367664, 45.1366733], [3.3367216, 45.1366703], [3.3366385, 45.1366745], [3.3364368, 45.1367098], [3.3361351, 45.136741], [3.3358344, 45.1367761], [3.3357361, 45.1367884], [3.3354627, 45.1368131], [3.3352365, 45.1368105], [3.3340303, 45.1365661], [3.3340436, 45.136515], [3.3340576, 45.1364615], [3.3340872, 45.1363479], [3.3323283, 45.1361748], [3.3318444, 45.1361249], [3.3312608, 45.1360743], [3.3311958, 45.1359696], [3.3311739, 45.1359326], [3.330787, 45.1353196], [3.3311728, 45.1351299], [3.3313608, 45.1350366], [3.3315291, 45.1349531], [3.3316606, 45.134888], [3.3317105, 45.1348709], [3.331855, 45.1348215], [3.3318774, 45.134819], [3.3319238, 45.1348109], [3.3319685, 45.1347993], [3.3320338, 45.1347931], [3.3321242, 45.1347864], [3.3321628, 45.1347836], [3.3322921, 45.1347779], [3.3322981, 45.1346038], [3.3322732, 45.1345055], [3.3324465, 45.1344508], [3.3326466, 45.1343879], [3.3329566, 45.1342493], [3.333024, 45.1342313], [3.3330991, 45.1341929], [3.3332676, 45.134104], [3.3333087, 45.1340805], [3.3333789, 45.1340422], [3.3333434, 45.133952], [3.3336042, 45.133829], [3.3337327, 45.1337669], [3.3339714, 45.1336523], [3.3340894, 45.1335995], [3.334127, 45.1335904], [3.3343683, 45.1335572], [3.334447, 45.1335604], [3.334584, 45.1335702], [3.3347872, 45.1335922], [3.335106, 45.1336283], [3.335212, 45.1336379], [3.335311, 45.1336463], [3.3354931, 45.1336665], [3.3357133, 45.1336889], [3.3357863, 45.1336957], [3.335934, 45.1336696], [3.3359442, 45.1336673], [3.3361267, 45.1336086], [3.3361403, 45.1336036], [3.3362422, 45.1335427], [3.3361724, 45.1333192], [3.3361359, 45.1332019], [3.3360929, 45.1330643], [3.3362381, 45.1329924], [3.3362538, 45.1329785], [3.3363012, 45.1329363], [3.3363323, 45.1329092], [3.3363849, 45.1328635], [3.3364335, 45.132821], [3.336449, 45.132778], [3.3364638, 45.1327372], [3.3364777, 45.1326987], [3.3363434, 45.1326458], [3.3363306, 45.1325709], [3.3363291, 45.132556], [3.3365253, 45.1324092], [3.3366596, 45.1323462], [3.3369594, 45.1322938], [3.3370835, 45.1322408], [3.337164, 45.1322251], [3.3373429, 45.1322061], [3.3374548, 45.1321584], [3.3375291, 45.1321439], [3.3376464, 45.1321344], [3.3377843, 45.1321061], [3.3380087, 45.1320374], [3.3382892, 45.1319416], [3.3384436, 45.1319076], [3.3385961, 45.1318702], [3.3386725, 45.1318499], [3.3387912, 45.1318323], [3.3391157, 45.1316838], [3.3391325, 45.1316891], [3.3391618, 45.1316791], [3.3392752, 45.1316406], [3.3394144, 45.1315933], [3.3397769, 45.1314963], [3.3398791, 45.1314724], [3.3400024, 45.1314583], [3.340032, 45.1314549], [3.3400506, 45.1314528], [3.3400658, 45.131399], [3.3403869, 45.1313773], [3.3405007, 45.1313697], [3.3405505, 45.1313663], [3.3405566, 45.1313239], [3.3406003, 45.1313197], [3.3407221, 45.1313107], [3.3407346, 45.1313101], [3.3408445, 45.1313054], [3.3410941, 45.1313352], [3.3411271, 45.1313363], [3.3412439, 45.131343], [3.3412879, 45.131347], [3.3413599, 45.1313534], [3.3414753, 45.1313677], [3.3414753, 45.1313479], [3.341475, 45.1312508], [3.3416367, 45.1311995], [3.3416999, 45.1311773], [3.3417735, 45.1311515], [3.3418928, 45.1311419], [3.3422721, 45.1312609], [3.3424736, 45.1313239], [3.3425283, 45.1313372], [3.3426439, 45.1313652], [3.3427416, 45.131389], [3.342776, 45.1313973], [3.3428582, 45.1312104], [3.3430108, 45.1312267], [3.3431752, 45.1312442], [3.3433768, 45.1312487], [3.3434079, 45.1312494], [3.34357, 45.1312902], [3.3438343, 45.1314068], [3.3439438, 45.1312631], [3.343952, 45.1312504], [3.3442603, 45.1314035], [3.3443537, 45.1314651], [3.3444668, 45.131562], [3.3445674, 45.1316057], [3.3448948, 45.1316941], [3.3452239, 45.131779], [3.345351, 45.1318106], [3.3455553, 45.1318998], [3.3457076, 45.1319392], [3.3458192, 45.1319543], [3.3459663, 45.131953], [3.3460478, 45.1319327], [3.3461609, 45.131891], [3.3463024, 45.1318846], [3.3463766, 45.1318634], [3.3464671, 45.1318121], [3.3466591, 45.1316734], [3.3468241, 45.1315827], [3.34701, 45.1315193], [3.3470665, 45.1315033], [3.3471248, 45.1314908], [3.3471843, 45.1314821], [3.3472175, 45.131479], [3.34755, 45.1313986], [3.347684, 45.1313701], [3.3478196, 45.1313452], [3.347856, 45.1313391], [3.3480921, 45.1313396], [3.3483076, 45.1313523], [3.348415, 45.1313756], [3.3485289, 45.1314154], [3.3486378, 45.1314283], [3.3487472, 45.1314374], [3.3488733, 45.1314432], [3.3489475, 45.1314551], [3.349093, 45.1315048], [3.3491472, 45.1315034], [3.3492007, 45.1314982], [3.3492297, 45.1314938], [3.3493968, 45.1314319], [3.349485, 45.1314173], [3.349652, 45.1314329], [3.3497385, 45.1314227], [3.3498239, 45.1314089], [3.3498826, 45.131397], [3.3500753, 45.1313907], [3.3501985, 45.1313745], [3.3506416, 45.1313449], [3.3509451, 45.1313631], [3.3510845, 45.1313617], [3.3512238, 45.1313565], [3.3512694, 45.1313539], [3.3513682, 45.1313636], [3.351619, 45.1313996], [3.3518868, 45.131392], [3.35204, 45.1313763], [3.3521895, 45.1313648], [3.3525529, 45.1313506], [3.3528664, 45.1313429], [3.3531799, 45.1313392], [3.3533331, 45.1313387], [3.3534574, 45.131324], [3.3535808, 45.1313055], [3.3536923, 45.1312854], [3.3537852, 45.1312542], [3.3539742, 45.131137], [3.3540097, 45.1311263], [3.3540908, 45.131116], [3.35416, 45.1311334], [3.3542517, 45.1311717], [3.3544722, 45.1311809], [3.3546971, 45.1311864], [3.3547987, 45.1311794], [3.3549458, 45.1311255], [3.3551969, 45.131088], [3.3553785, 45.1310158], [3.355415, 45.1310231], [3.3555876, 45.13101], [3.3556419, 45.1309992], [3.3557154, 45.1309811], [3.3557868, 45.1309594], [3.355856, 45.1309345], [3.3559072, 45.1309265], [3.3559655, 45.1309274], [3.3560808, 45.1309416], [3.3561738, 45.1309657], [3.3562676, 45.1309858], [3.3563626, 45.1310023], [3.3565822, 45.1309578], [3.3566477, 45.1309493], [3.3567087, 45.1309829], [3.3568312, 45.1309242], [3.3571891, 45.1308912], [3.3573097, 45.1308828], [3.3573586, 45.1308854], [3.357511, 45.1308963], [3.357663, 45.1309109], [3.3577846, 45.1309488], [3.3578462, 45.1309558], [3.3579636, 45.1309432], [3.3580391, 45.1309199], [3.3581085, 45.1309193], [3.3582569, 45.1309393], [3.3583105, 45.1309296], [3.3583236, 45.1309113], [3.3583402, 45.1308969], [3.3583606, 45.1308851], [3.3584173, 45.1308799], [3.3585602, 45.1308959], [3.3588046, 45.1308987], [3.3588819, 45.13092], [3.3591707, 45.1310544], [3.3592243, 45.1310735], [3.359308, 45.131084], [3.3594279, 45.1310559], [3.3595575, 45.1310216], [3.359685, 45.1309839], [3.359782, 45.1309984], [3.3599355, 45.1310246], [3.3600875, 45.1310546], [3.3601721, 45.1310607], [3.3602015, 45.1310535], [3.3602534, 45.1310378], [3.3603031, 45.1310187], [3.3603497, 45.1309962], [3.3604333, 45.1309789], [3.3605129, 45.1309784], [3.3606573, 45.1309947], [3.3610548, 45.1311279], [3.3614338, 45.1312201], [3.3614843, 45.131238], [3.3616764, 45.1313083], [3.3618661, 45.1313822], [3.3619328, 45.1314525], [3.3620242, 45.1315884], [3.3620822, 45.1316456], [3.3622, 45.1317063], [3.3622609, 45.1317114], [3.3623377, 45.1316725], [3.3623625, 45.1316691], [3.3624252, 45.1316634], [3.3624884, 45.1316613], [3.3626011, 45.1316691], [3.3626762, 45.131685], [3.3628589, 45.1317686], [3.362937, 45.1317759], [3.3630969, 45.1317612], [3.3632582, 45.131722], [3.3633033, 45.1317196], [3.3634168, 45.1317359], [3.3635351, 45.1317734], [3.3636515, 45.131806], [3.3637122, 45.1318089], [3.3638177, 45.1317865], [3.3639684, 45.1318002], [3.3640472, 45.1317827], [3.3640794, 45.1317868], [3.364145, 45.1318103], [3.3643008, 45.1318809], [3.3644023, 45.1320168], [3.3644854, 45.1321301], [3.364533, 45.1321755], [3.3646098, 45.1322569], [3.3647081, 45.1323744], [3.3648948, 45.1324749], [3.3650531, 45.1325186], [3.3650673, 45.1325123], [3.3653855, 45.1317379], [3.3654363, 45.1316128], [3.3658926, 45.1304905], [3.3659717, 45.1302905], [3.3660092, 45.1303009], [3.367002, 45.1305783], [3.3673222, 45.1305498], [3.3676877, 45.1305142], [3.3676161, 45.1302289], [3.3675997, 45.1301609], [3.3674713, 45.1296423], [3.3674345, 45.1294961], [3.3672717, 45.1295449], [3.3671444, 45.1295828], [3.3670119, 45.1296254], [3.366821, 45.1296867], [3.3668125, 45.1296894], [3.3667688, 45.1296257], [3.3666789, 45.129494], [3.3664736, 45.1291833], [3.3664391, 45.1291334], [3.3665102, 45.1291139], [3.3665275, 45.1290577], [3.3666276, 45.1288884], [3.3666402, 45.1288672], [3.3666524, 45.1287425], [3.3666738, 45.1285822], [3.3668809, 45.1285424], [3.3669551, 45.1285282], [3.3671965, 45.1284822], [3.3672295, 45.1284759], [3.367279, 45.1284665], [3.3676944, 45.128387], [3.3679562, 45.1282904], [3.3681936, 45.1282714], [3.3684422, 45.1282413], [3.3684681, 45.1282395], [3.368701, 45.1282239], [3.3687281, 45.1282222], [3.3689801, 45.1281838], [3.3690527, 45.1285339], [3.3702354, 45.1287288], [3.3702476, 45.1286846], [3.3702617, 45.1285568], [3.3703034, 45.1284783], [3.3703261, 45.1284413], [3.3703561, 45.1283923], [3.3703572, 45.1283904], [3.3706178, 45.1285009], [3.3707065, 45.1285365], [3.3707952, 45.1285731], [3.3708885, 45.1286107], [3.3709387, 45.1286341], [3.371087, 45.128707], [3.3712374, 45.1287823], [3.3712612, 45.1287947], [3.3712991, 45.1288142], [3.3713968, 45.1288688], [3.3714494, 45.128899], [3.3715496, 45.1289569], [3.3717053, 45.1290494], [3.3718219, 45.1291195], [3.3720858, 45.1292785], [3.372176, 45.1293176], [3.3723788, 45.1294075], [3.3724924, 45.1294682], [3.3725519, 45.1295015], [3.3726293, 45.1295456], [3.3726659, 45.1295679], [3.372866, 45.1296906], [3.3729326, 45.1297338], [3.3730126, 45.1297845], [3.3730154, 45.1297863], [3.3730404, 45.1297983], [3.3732175, 45.1298874], [3.3734043, 45.1299779], [3.3735179, 45.1300318], [3.3736242, 45.1300746], [3.3737171, 45.1301097], [3.3737706, 45.1301292], [3.3738893, 45.1301712], [3.3740567, 45.1302281], [3.3741463, 45.1302546], [3.3741926, 45.130268], [3.374229, 45.1302788], [3.374457, 45.1303398], [3.3746086, 45.1303787], [3.3746764, 45.1303937], [3.3749057, 45.1304392], [3.3750967, 45.1304778], [3.3752718, 45.1305267], [3.3755119, 45.130604], [3.3755666, 45.1306213], [3.3756376, 45.1306438], [3.3759042, 45.1307383], [3.3761596, 45.1308297], [3.3761816, 45.130831], [3.3762432, 45.130836], [3.3763179, 45.1308439], [3.3763815, 45.1308591], [3.3764574, 45.1308708], [3.376501, 45.1308698], [3.3765766, 45.1308762], [3.3767624, 45.1308898], [3.3768083, 45.1308932], [3.3770124, 45.1309448], [3.3770851, 45.1309631], [3.3773279, 45.1310244], [3.3773665, 45.1310342], [3.3776081, 45.1311008], [3.3777412, 45.1311934], [3.3777486, 45.131181], [3.3777576, 45.1311661], [3.3777708, 45.1311439], [3.3777829, 45.1311238], [3.3778176, 45.131123], [3.3778578, 45.131122], [3.3781221, 45.1311156], [3.3781487, 45.1311148], [3.378261, 45.1311121], [3.3783297, 45.1311196], [3.3783984, 45.1311342], [3.3784611, 45.1311475], [3.3785413, 45.1311785], [3.3786423, 45.1312177], [3.3786932, 45.1312374], [3.378768, 45.1312777], [3.3788371, 45.1313147], [3.3789003, 45.1313487], [3.3789534, 45.1313774], [3.3789613, 45.1313816], [3.3790638, 45.1314121], [3.3791255, 45.1314306], [3.3791786, 45.1314442], [3.3795633, 45.1315432], [3.3797259, 45.1315839], [3.3798917, 45.1316254], [3.3800428, 45.1316677], [3.3802104, 45.1317148], [3.3805627, 45.1318134], [3.3805808, 45.1318184], [3.380978, 45.1319229], [3.3812781, 45.1319997], [3.3813714, 45.1318445], [3.3812974, 45.1318097], [3.381229, 45.1317475], [3.3813058, 45.1317049], [3.381346, 45.1316827], [3.3814308, 45.1316369], [3.3815639, 45.131565], [3.3816284, 45.1315302], [3.3817933, 45.1314429], [3.3819052, 45.1313838], [3.3819719, 45.1313465], [3.382, 45.1313304], [3.3820607, 45.1312809], [3.3821164, 45.1312355], [3.3821366, 45.1312189], [3.382208, 45.1311725], [3.3823798, 45.131093], [3.3824185, 45.1310683], [3.3824529, 45.1310462], [3.3824573, 45.1310484], [3.3824796, 45.1310595], [3.3826828, 45.130956], [3.3826663, 45.1309409], [3.382731, 45.1309049], [3.3828788, 45.1308229], [3.3829624, 45.1307768], [3.3830766, 45.1307139], [3.3832006, 45.1306457], [3.3833477, 45.1305649], [3.3834434, 45.1305549], [3.3835398, 45.1304947], [3.3834842, 45.1304252], [3.3836261, 45.1303498], [3.3845293, 45.1303536], [3.3845716, 45.1303646], [3.3846519, 45.1303705], [3.3848403, 45.1302886], [3.384912, 45.1302528], [3.384956, 45.1302254], [3.384981, 45.1302072], [3.3850141, 45.1301755], [3.3851007, 45.130036], [3.3852112, 45.129925], [3.3853707, 45.1298102], [3.3854096, 45.1297285], [3.3854963, 45.1295996], [3.3854849, 45.1295783], [3.3853853, 45.129514], [3.3853919, 45.1294321], [3.3854039, 45.1293506], [3.38542, 45.1292782], [3.3854489, 45.1293015], [3.3854508, 45.1292826], [3.3854559, 45.1292636], [3.3854648, 45.1292431], [3.3854834, 45.1292189], [3.3855574, 45.1291515], [3.3856008, 45.1291008], [3.3856366, 45.1290553], [3.3856642, 45.1290179], [3.3857335, 45.1289423], [3.3857471, 45.1289126], [3.3857661, 45.1288703], [3.3857753, 45.1288498], [3.3857808, 45.1288374], [3.3857905, 45.1288183], [3.3857941, 45.128806], [3.3858201, 45.1287619], [3.3858658, 45.1287258], [3.3859141, 45.1286848], [3.3859555, 45.1286333], [3.3859867, 45.1285914], [3.386018, 45.1285394], [3.3860391, 45.1284928], [3.3860555, 45.1284395], [3.3860667, 45.1283864], [3.3860843, 45.1283136], [3.3861252, 45.1282554], [3.3861609, 45.1282314], [3.3861942, 45.1282094], [3.3863371, 45.1281274], [3.3863832, 45.1280776], [3.3864159, 45.1280388], [3.3864403, 45.1280125], [3.3864774, 45.1279768], [3.3865267, 45.1279458], [3.3866474, 45.1278774], [3.3867826, 45.1277982], [3.3868952, 45.1277305], [3.3869964, 45.1276807], [3.3871376, 45.1276184], [3.3871759, 45.127602], [3.3872853, 45.1275603], [3.3874623, 45.1274878], [3.387464, 45.1274891], [3.3873807, 45.1272203], [3.3873621, 45.1272255], [3.3868551, 45.1273984], [3.3867619, 45.127453], [3.3866841, 45.127387], [3.386637, 45.1273471], [3.3866188, 45.1273317], [3.3865894, 45.127261], [3.3865588, 45.127232], [3.3866055, 45.1272061], [3.3867087, 45.1271524], [3.386815, 45.127102], [3.3867543, 45.1270042], [3.3867487, 45.126995], [3.3866932, 45.1268957], [3.3866288, 45.126805], [3.3866374, 45.1267441], [3.3866266, 45.126709], [3.386624, 45.1266984], [3.3866171, 45.1266812], [3.3865906, 45.1266383], [3.3865628, 45.1265981], [3.3865495, 45.1265806], [3.3864512, 45.1263862], [3.3864279, 45.1263329], [3.3864132, 45.1263071], [3.3863682, 45.1261803], [3.3863493, 45.1261187], [3.3863453, 45.1260171], [3.3863448, 45.1259355], [3.3863424, 45.1258943], [3.3863319, 45.1258266], [3.3863078, 45.1257021], [3.3862845, 45.125683], [3.3862638, 45.1256561], [3.3863007, 45.1254363], [3.3863791, 45.1253819], [3.3863613, 45.1252521], [3.3863567, 45.1252212], [3.386332, 45.1250712], [3.3863166, 45.1250028], [3.3862954, 45.1249214], [3.3862476, 45.1247657], [3.3862548, 45.1247586], [3.386369, 45.1248786], [3.3864848, 45.1249805], [3.386517, 45.1249958], [3.3866287, 45.1249813], [3.3867237, 45.1249986], [3.3868232, 45.1250212], [3.3869149, 45.1250213], [3.3870771, 45.1250459], [3.3871872, 45.1250255], [3.3871852, 45.1250177], [3.3871322, 45.1249609], [3.3871101, 45.1249354], [3.3870171, 45.1248272], [3.3869687, 45.1246795], [3.3868802, 45.1244725], [3.3874335, 45.124184], [3.3874613, 45.1241695], [3.3874845, 45.1241574], [3.3877505, 45.124019], [3.3878769, 45.1239533], [3.3879732, 45.1239079], [3.3885651, 45.1236033], [3.3884586, 45.1235418], [3.3883944, 45.1235045], [3.3883694, 45.1234482], [3.3883412, 45.1233836], [3.3883389, 45.1233782], [3.3880493, 45.1234266], [3.3877694, 45.1234734], [3.3876567, 45.1234919], [3.3871337, 45.1235825], [3.3871094, 45.1235856], [3.3866314, 45.1236672], [3.3862142, 45.1237385], [3.3861025, 45.1237647], [3.3861666, 45.1235356], [3.3861716, 45.1235177], [3.38627, 45.1235043], [3.3866945, 45.1234462], [3.3870335, 45.1234], [3.387062, 45.1234009], [3.3873369, 45.1233769], [3.3876285, 45.1233515], [3.3877473, 45.1233358], [3.3881105, 45.1232893], [3.3882874, 45.1232668], [3.388272, 45.123227], [3.3882088, 45.1230734], [3.3881911, 45.123034], [3.3881572, 45.1229583], [3.3881404, 45.122921], [3.3878403, 45.1229332], [3.3877256, 45.1229383], [3.3872704, 45.1229645], [3.3869027, 45.1229859], [3.3868624, 45.1229858], [3.3868136, 45.1229946], [3.3865012, 45.1230506], [3.3864538, 45.1229183], [3.3867135, 45.1228884], [3.3867654, 45.1228824], [3.3868105, 45.1228772], [3.3868476, 45.1228795], [3.387758, 45.1228621], [3.3878736, 45.1228584], [3.3880143, 45.1228569], [3.3879847, 45.1226103], [3.3879362, 45.1222727], [3.3875753, 45.1223966], [3.3875238, 45.1224137], [3.3872704, 45.1224969], [3.3872179, 45.1224377], [3.3871965, 45.1224196], [3.3871816, 45.1224126], [3.3871345, 45.1223909], [3.3871023, 45.122376], [3.3870824, 45.1223667], [3.3869887, 45.1223255], [3.3865655, 45.1221392], [3.3864672, 45.1222111], [3.3864459, 45.1222268], [3.3864006, 45.1222599], [3.3863832, 45.1222727], [3.3863746, 45.122284], [3.3863226, 45.1222131], [3.3862653, 45.1221014], [3.3862311, 45.121946], [3.3862101, 45.1218799], [3.3862072, 45.1216803], [3.386167, 45.1215408], [3.3861343, 45.1212243], [3.3861153, 45.1210691], [3.3861317, 45.1210559], [3.3861463, 45.1209209], [3.3863048, 45.1208717], [3.3861986, 45.1208035], [3.386332, 45.1205975], [3.386448, 45.1204086], [3.3863384, 45.1202428], [3.3863359, 45.1202315], [3.3863083, 45.1202333], [3.3862817, 45.1202387], [3.3862523, 45.1202501], [3.3861473, 45.1204546], [3.3861242, 45.1205428], [3.3861067, 45.1205693], [3.3860137, 45.1206182], [3.3860041, 45.1206078], [3.3859384, 45.1205369], [3.3859068, 45.1205122], [3.3858459, 45.1205021], [3.3857839, 45.1204959], [3.3857336, 45.1204936], [3.3856823, 45.1204801], [3.3856327, 45.1204517], [3.3855514, 45.1203522], [3.385561, 45.1203363], [3.3857366, 45.1201009], [3.3858684, 45.1199243], [3.385916, 45.1198593], [3.3863917, 45.1192179], [3.3864823, 45.1190875], [3.3869473, 45.1190696], [3.3873748, 45.1190197], [3.3874223, 45.1190095], [3.387535, 45.1189852], [3.3878384, 45.11892], [3.3878351, 45.118883], [3.3877239, 45.1189173], [3.3876736, 45.1189328], [3.3874803, 45.118921], [3.3873544, 45.1188885], [3.3872086, 45.1188405], [3.3871274, 45.1188136], [3.3869133, 45.1187441], [3.3870408, 45.1183753], [3.3871288, 45.1181204], [3.3871483, 45.1180642], [3.387314, 45.1175751], [3.3873422, 45.1174886], [3.3872225, 45.1173791], [3.3868867, 45.1170723], [3.3866376, 45.1169472], [3.3862103, 45.1167323], [3.3861271, 45.116691], [3.3859606, 45.1166059], [3.3859567, 45.1166039], [3.3857385, 45.1164913], [3.3860874, 45.116225], [3.386166, 45.1161654], [3.3864035, 45.116276], [3.3866481, 45.11639], [3.3867846, 45.1164542], [3.3870163, 45.1165625], [3.3871639, 45.1166305], [3.3873754, 45.1167277], [3.3874083, 45.1167428], [3.3875981, 45.1168301], [3.3876734, 45.1168974], [3.3878185, 45.1170264], [3.3881543, 45.117312], [3.3884496, 45.1171732], [3.388839, 45.1169807], [3.3889521, 45.1169278], [3.3890008, 45.1169165], [3.3890992, 45.1168732], [3.3891859, 45.11681], [3.3891953, 45.1167885], [3.3894066, 45.1166113], [3.3895111, 45.1165245], [3.3895527, 45.11649], [3.3897842, 45.1162973], [3.3900434, 45.1160823], [3.3900563, 45.1160725], [3.3900049, 45.1160107], [3.3897897, 45.1158202], [3.3896403, 45.1157113], [3.3896525, 45.1157033], [3.38992, 45.1155185], [3.3900296, 45.1154426], [3.3904643, 45.1151423], [3.3907412, 45.1149504], [3.3917791, 45.1142162], [3.3918026, 45.1142038], [3.3919917, 45.1143856], [3.3920285, 45.1143916], [3.3927022, 45.1140212], [3.3941089, 45.1137929], [3.3947099, 45.1136966], [3.3947155, 45.1138313], [3.3947153, 45.1139562], [3.3949647, 45.1139371], [3.3951168, 45.1139278], [3.3952683, 45.1139148], [3.3953548, 45.1139055], [3.3955382, 45.1138994], [3.3956809, 45.1138838], [3.3959039, 45.113837], [3.3959628, 45.1137174], [3.3959818, 45.1136616], [3.3960681, 45.113493], [3.3961345, 45.1134255], [3.3961574, 45.1133773], [3.3961539, 45.1132595], [3.3961556, 45.1131418], [3.3961627, 45.113024], [3.396166, 45.1129877]]]]}, "properties": {"id": "43175", "nom": "SAINT-CIRGUES", "created": "2015-01-14", "updated": "2025-10-27"}}]}