{"type": "FeatureCollection", "features": [{"type": "Feature", "id": "431750000A0104", "geometry": {"type": "Polygon", "coordinates": [[[3.3945447, 45.1428882], [3.3943948, 45.1428305], [3.3945484, 45.1425353], [3.3946991, 45.1422575], [3.3950109, 45.1423949], [3.3947494, 45.1426233], [3.3946702, 45.1427177], [3.3945447, 45.1428882]]]}, "properties": {"id": "431750000A0104", "commune": "43175", "prefixe": "000", "section": "A", "numero": "104", "contenance": 1276, "arpente": false, "created": "2015-01-14", "updated": "2024-11-22"}}, {"type": "Feature", "id": "431750000A0105", "geometry": {"type": "Polygon", "coordinates": [[[3.3950109, 45.1423949], [3.3946991, 45.1422575], [3.3945484, 45.1425353], [3.3943948, 45.1428305], [3.3942471, 45.1427601], [3.3937134, 45.1425058], [3.3937703, 45.1424886], [3.3939104, 45.1424354], [3.3941093, 45.1423126], [3.3943051, 45.1421509], [3.394505, 45.1419917], [3.394567, 45.1419437], [3.3946003, 45.1418996], [3.3946649, 45.1417308], [3.3946902, 45.1417144], [3.3947477, 45.1417162], [3.3948379, 45.1417347], [3.3949266, 45.1417568], [3.3949672, 45.1417683], [3.3952056, 45.1423454], [3.3950831, 45.1423541], [3.3950266, 45.1423813], [3.3950109, 45.1423949]]]}, "properties": {"id": "431750000A0105", "commune": "43175", "prefixe": "000", "section": "A", "numero": "105", "contenance": 5693, "arpente": false, "created": "2015-01-14", "updated": "2024-11-22"}}, {"type": "Feature", "id": "431750000A0444", "geometry": {"type": "Polygon", "coordinates": [[[3.3984561, 45.140508], [3.3986007, 45.1406681], [3.3986081, 45.1406901], [3.3986101, 45.1407126], [3.3986068, 45.140735], [3.3986036, 45.1407447], [3.3985807, 45.1407813], [3.3985153, 45.1408413], [3.3983074, 45.1409218], [3.3981623, 45.1410058], [3.3981721, 45.1410206], [3.3980281, 45.1410495], [3.3979434, 45.1414473], [3.3977655, 45.1414329], [3.397681, 45.1414322], [3.397704, 45.141087], [3.3976859, 45.1410461], [3.3976374, 45.140939], [3.3975725, 45.1408116], [3.3975682, 45.1408031], [3.3976328, 45.1407426], [3.3977229, 45.1407994], [3.3979024, 45.1408267], [3.397951, 45.1408282], [3.398132, 45.1407377], [3.3983826, 45.1405719], [3.3984561, 45.140508]]]}, "properties": {"id": "431750000A0444", "commune": "43175", "prefixe": "000", "section": "A", "numero": "444", "contenance": 3325, "arpente": false, "created": "2015-01-14", "updated": "2024-11-22"}}, {"type": "Feature", "id": "431750000A0496", "geometry": {"type": "Polygon", "coordinates": [[[3.396042, 45.1413019], [3.3957362, 45.1413797], [3.3956151, 45.1411744], [3.3957396, 45.1411216], [3.3959059, 45.1410782], [3.396042, 45.1413019]]]}, "properties": {"id": "431750000A0496", "commune": "43175", "prefixe": "000", "section": "A", "numero": "496", "contenance": 648, "arpente": false, "created": "2015-01-14", "updated": "2024-11-22"}}, {"type": "Feature", "id": "431750000A0497", "geometry": {"type": "Polygon", "coordinates": [[[3.396042, 45.1413019], [3.3962273, 45.1416172], [3.3961198, 45.1416517], [3.3959129, 45.1416792], [3.3957362, 45.1413797], [3.396042, 45.1413019]]]}, "properties": {"id": "431750000A0497", "commune": "43175", "prefixe": "000", "section": "A", "numero": "497", "contenance": 966, "arpente": false, "created": "2015-01-14", "updated": "2024-11-22"}}, {"type": "Feature", "id": "431750000A0412", "geometry": {"type": "Polygon", "coordinates": [[[3.4020391, 45.1419261], [3.4014612, 45.141879], [3.4005394, 45.1418104], [3.4005398, 45.1418069], [3.4005432, 45.1417826], [3.4006172, 45.1417765], [3.4006642, 45.1416817], [3.4007316, 45.1416889], [3.4008288, 45.1416981], [3.4009259, 45.1416925], [3.4010664, 45.1416793], [3.401478, 45.1416683], [3.401962, 45.1416583], [3.4020004, 45.1418262], [3.4020391, 45.1419261]]]}, "properties": {"id": "431750000A0412", "commune": "43175", "prefixe": "000", "section": "A", "numero": "412", "contenance": 2320, "arpente": false, "created": "2015-01-14", "updated": "2024-11-22"}}, {"type": "Feature", "id": "431750000A0445", "geometry": {"type": "Polygon", "coordinates": [[[3.3981721, 45.1410206], [3.3982635, 45.1410323], [3.3983539, 45.1410478], [3.3984261, 45.1410629], [3.3982896, 45.1415668], [3.3981291, 45.1414935], [3.3980371, 45.1414637], [3.3979434, 45.1414473], [3.3980281, 45.1410495], [3.3981721, 45.1410206]]]}, "properties": {"id": "431750000A0445", "commune": "43175", "prefixe": "000", "section": "A", "numero": "445", "contenance": 1565, "arpente": false, "created": "2015-01-14", "updated": "2024-11-22"}}, {"type": "Feature", "id": "431750000A0447", "geometry": {"type": "Polygon", "coordinates": [[[3.3986248, 45.1410996], [3.3987592, 45.1411242], [3.398568, 45.1416837], [3.398435, 45.1416368], [3.3986248, 45.1410996]]]}, "properties": {"id": "431750000A0447", "commune": "43175", "prefixe": "000", "section": "A", "numero": "447", "contenance": 668, "arpente": false, "created": "2015-01-14", "updated": "2024-11-22"}}, {"type": "Feature", "id": "431750000A0448", "geometry": {"type": "Polygon", "coordinates": [[[3.3987592, 45.1411242], [3.3990245, 45.1411958], [3.3990845, 45.1412246], [3.398841, 45.1417643], [3.3987092, 45.1417336], [3.398568, 45.1416837], [3.3987592, 45.1411242]]]}, "properties": {"id": "431750000A0448", "commune": "43175", "prefixe": "000", "section": "A", "numero": "448", "contenance": 1605, "arpente": false, "created": "2015-01-14", "updated": "2024-11-22"}}, {"type": "Feature", "id": "431750000A0459", "geometry": {"type": "Polygon", "coordinates": [[[3.398786, 45.1423276], [3.3986735, 45.1422211], [3.3986182, 45.14217], [3.3985587, 45.1421214], [3.3984877, 45.14207], [3.3987228, 45.1417816], [3.3989613, 45.1418308], [3.3990322, 45.1418502], [3.398786, 45.1423276]]]}, "properties": {"id": "431750000A0459", "commune": "43175", "prefixe": "000", "section": "A", "numero": "459", "contenance": 1325, "arpente": false, "created": "2015-01-14", "updated": "2024-11-22"}}, {"type": "Feature", "id": "431750000A0549", "geometry": {"type": "Polygon", "coordinates": [[[3.3889352, 45.1435163], [3.3887533, 45.1434256], [3.3889237, 45.1431514], [3.3889901, 45.1431682], [3.3891287, 45.1432019], [3.3889352, 45.1435163]]]}, "properties": {"id": "431750000A0549", "commune": "43175", "prefixe": "000", "section": "A", "numero": "549", "contenance": 580, "arpente": false, "created": "2015-01-14", "updated": "2024-11-22"}}, {"type": "Feature", "id": "431750000A0551", "geometry": {"type": "Polygon", "coordinates": [[[3.3879651, 45.1430073], [3.3879843, 45.1427438], [3.3884073, 45.1428704], [3.388558, 45.1429116], [3.3888293, 45.1429773], [3.3890014, 45.1430098], [3.3890339, 45.1430131], [3.3889901, 45.1431682], [3.3889237, 45.1431514], [3.3887353, 45.1431035], [3.3884054, 45.1430197], [3.3883658, 45.1430222], [3.3882803, 45.1430247], [3.3881945, 45.1430235], [3.3879651, 45.1430073]]]}, "properties": {"id": "431750000A0551", "commune": "43175", "prefixe": "000", "section": "A", "numero": "551", "contenance": 1562, "arpente": false, "created": "2015-01-14", "updated": "2024-11-22"}}, {"type": "Feature", "id": "431750000A0537", "geometry": {"type": "Polygon", "coordinates": [[[3.3902276, 45.1432122], [3.3903921, 45.1434088], [3.390159, 45.1435219], [3.3900524, 45.1432153], [3.3902276, 45.1432122]]]}, "properties": {"id": "431750000A0537", "commune": "43175", "prefixe": "000", "section": "A", "numero": "537", "contenance": 565, "arpente": false, "created": "2015-01-14", "updated": "2024-11-22"}}, {"type": "Feature", "id": "431750000A0539", "geometry": {"type": "Polygon", "coordinates": [[[3.3893957, 45.1432487], [3.3894673, 45.1429948], [3.3898485, 45.1431126], [3.3898522, 45.1432388], [3.3898531, 45.1432554], [3.3896277, 45.14325], [3.3894167, 45.1432487], [3.3893957, 45.1432487]]]}, "properties": {"id": "431750000A0539", "commune": "43175", "prefixe": "000", "section": "A", "numero": "539", "contenance": 740, "arpente": false, "created": "2015-01-14", "updated": "2024-11-22"}}, {"type": "Feature", "id": "431750000A0077", "geometry": {"type": "Polygon", "coordinates": [[[3.3928829, 45.1431732], [3.3928201, 45.1435936], [3.3924235, 45.1435217], [3.3924831, 45.1432133], [3.392492, 45.1431671], [3.3925633, 45.1431929], [3.3926051, 45.1431933], [3.3927365, 45.1431637], [3.3927846, 45.1431629], [3.3928326, 45.1431659], [3.3928829, 45.1431732]]]}, "properties": {"id": "431750000A0077", "commune": "43175", "prefixe": "000", "section": "A", "numero": "77", "contenance": 1328, "arpente": false, "created": "2015-01-14", "updated": "2024-11-22"}}, {"type": "Feature", "id": "431750000A0076", "geometry": {"type": "Polygon", "coordinates": [[[3.3923697, 45.1437991], [3.3924235, 45.1435217], [3.3928201, 45.1435936], [3.3927855, 45.1438241], [3.3926698, 45.1438267], [3.3925998, 45.1438202], [3.3923697, 45.1437991]]]}, "properties": {"id": "431750000A0076", "commune": "43175", "prefixe": "000", "section": "A", "numero": "76", "contenance": 927, "arpente": false, "created": "2015-01-14", "updated": "2024-11-22"}}, {"type": "Feature", "id": "431750000A0131", "geometry": {"type": "Polygon", "coordinates": [[[3.39654, 45.1449676], [3.3968358, 45.1445274], [3.3970665, 45.1441794], [3.3974326, 45.1443514], [3.3972528, 45.1444965], [3.3971752, 45.1445516], [3.3970522, 45.1446347], [3.3969254, 45.1447149], [3.3967643, 45.1448783], [3.3966092, 45.1450044], [3.39654, 45.1449676]]]}, "properties": {"id": "431750000A0131", "commune": "43175", "prefixe": "000", "section": "A", "numero": "131", "contenance": 1910, "arpente": false, "created": "2015-01-14", "updated": "2024-11-22"}}, {"type": "Feature", "id": "431750000A0460", "geometry": {"type": "Polygon", "coordinates": [[[3.3986735, 45.1422211], [3.3982375, 45.142377], [3.3984877, 45.14207], [3.3985587, 45.1421214], [3.3986182, 45.14217], [3.3986735, 45.1422211]]]}, "properties": {"id": "431750000A0460", "commune": "43175", "prefixe": "000", "section": "A", "numero": "460", "contenance": 415, "arpente": false, "created": "2015-01-14", "updated": "2024-11-22"}}, {"type": "Feature", "id": "431180000A0193", "geometry": {"type": "Polygon", "coordinates": [[[3.4120873, 45.1605607], [3.4123647, 45.1605071], [3.4123713, 45.1606867], [3.4116452, 45.160859], [3.4116513, 45.1609116], [3.4112604, 45.1611022], [3.4109934, 45.1609506], [3.410959, 45.1609109], [3.4113062, 45.160769], [3.4119114, 45.1606035], [3.4120873, 45.1605607]]]}, "properties": {"id": "431180000A0193", "commune": "43118", "prefixe": "000", "section": "A", "numero": "193", "contenance": 2415, "arpente": false, "created": "2014-08-07", "updated": "2015-02-10"}}, {"type": "Feature", "id": "431180000A0191", "geometry": {"type": "Polygon", "coordinates": [[[3.4121065, 45.1599632], [3.4121694, 45.1600114], [3.412208, 45.1600524], [3.412242, 45.1600955], [3.4122713, 45.1601403], [3.4122784, 45.1601528], [3.4120268, 45.160249], [3.4119006, 45.1602906], [3.4115702, 45.1604762], [3.4113945, 45.160538], [3.4112176, 45.1605961], [3.4112113, 45.1605856], [3.4115148, 45.1603723], [3.4117403, 45.1602331], [3.4118405, 45.16016], [3.4119364, 45.1600844], [3.4121065, 45.1599632]]]}, "properties": {"id": "431180000A0191", "commune": "43118", "prefixe": "000", "section": "A", "numero": "191", "contenance": 1200, "arpente": false, "created": "2014-08-07", "updated": "2015-02-10"}}, {"type": "Feature", "id": "431750000A0189", "geometry": {"type": "Polygon", "coordinates": [[[3.4023074, 45.1440166], [3.4024607, 45.1440026], [3.4027476, 45.1440815], [3.4026605, 45.1441352], [3.4023074, 45.1440166]]]}, "properties": {"id": "431750000A0189", "commune": "43175", "prefixe": "000", "section": "A", "numero": "189", "contenance": 175, "arpente": false, "created": "2015-01-14", "updated": "2024-11-22"}}, {"type": "Feature", "id": "431750000A0889", "geometry": {"type": "Polygon", "coordinates": [[[3.4036633, 45.145291], [3.4036539, 45.1452234], [3.4036819, 45.1452164], [3.4037634, 45.1451853], [3.4037729, 45.1452011], [3.4038204, 45.1451785], [3.4038573, 45.1452278], [3.4038195, 45.1452404], [3.4036633, 45.145291]]]}, "properties": {"id": "431750000A0889", "commune": "43175", "prefixe": "000", "section": "A", "numero": "889", "contenance": 101, "arpente": false, "created": "2015-01-14", "updated": "2024-11-22"}}, {"type": "Feature", "id": "431750000A0265", "geometry": {"type": "Polygon", "coordinates": [[[3.4050065, 45.1451705], [3.4049719, 45.145199], [3.4049876, 45.1452119], [3.4049429, 45.1452466], [3.4049294, 45.1452343], [3.404814, 45.1451281], [3.4049317, 45.1451095], [3.4050065, 45.1451705]]]}, "properties": {"id": "431750000A0265", "commune": "43175", "prefixe": "000", "section": "A", "numero": "265", "contenance": 113, "arpente": false, "created": "2015-01-14", "updated": "2024-11-22"}}, {"type": "Feature", "id": "431750000A0888", "geometry": {"type": "Polygon", "coordinates": [[[3.4036633, 45.145291], [3.4036164, 45.1452327], [3.4036539, 45.1452234], [3.4036633, 45.145291]]]}, "properties": {"id": "431750000A0888", "commune": "43175", "prefixe": "000", "section": "A", "numero": "888", "contenance": 12, "arpente": false, "created": "2015-01-14", "updated": "2024-11-22"}}, {"type": "Feature", "id": "431750000A0292", "geometry": {"type": "Polygon", "coordinates": [[[3.4042495, 45.145652], [3.4041546, 45.1456838], [3.4041517, 45.1456676], [3.404177, 45.1456553], [3.4041555, 45.1456321], [3.4042199, 45.145606], [3.4042828, 45.1455802], [3.4043194, 45.145608], [3.4042408, 45.145638], [3.4042495, 45.145652]]]}, "properties": {"id": "431750000A0292", "commune": "43175", "prefixe": "000", "section": "A", "numero": "292", "contenance": 55, "arpente": false, "created": "2015-01-14", "updated": "2024-11-22"}}, {"type": "Feature", "id": "431750000A0703", "geometry": {"type": "Polygon", "coordinates": [[[3.3777803, 45.143409], [3.3778367, 45.1433512], [3.3783426, 45.1435021], [3.3783003, 45.1435111], [3.3781745, 45.1435381], [3.3777803, 45.143409]]]}, "properties": {"id": "431750000A0703", "commune": "43175", "prefixe": "000", "section": "A", "numero": "703", "contenance": 330, "arpente": false, "created": "2015-01-14", "updated": "2024-11-22"}}, {"type": "Feature", "id": "431750000B0658", "geometry": {"type": "Polygon", "coordinates": [[[3.3718941, 45.1306363], [3.3728337, 45.1299472], [3.3730126, 45.1297845], [3.3730154, 45.1297863], [3.3730404, 45.1297983], [3.3732175, 45.1298874], [3.3734043, 45.1299779], [3.3735179, 45.1300318], [3.3736242, 45.1300746], [3.3737171, 45.1301097], [3.3737706, 45.1301292], [3.3738893, 45.1301712], [3.3740567, 45.1302281], [3.3738073, 45.131599], [3.3739133, 45.1316123], [3.3740161, 45.1316253], [3.3742112, 45.1316479], [3.3744117, 45.1316692], [3.3747129, 45.1317013], [3.3746851, 45.1321203], [3.3746606, 45.1324988], [3.3735818, 45.1321649], [3.3734778, 45.1322808], [3.3734332, 45.132243], [3.3733285, 45.1320885], [3.373257, 45.1319962], [3.3730662, 45.1318644], [3.3729173, 45.1317366], [3.3727906, 45.1315919], [3.3727048, 45.1315208], [3.3725393, 45.1314626], [3.3724834, 45.131435], [3.3724341, 45.131295], [3.372261, 45.1310783], [3.3719216, 45.1306766], [3.3718941, 45.1306363]]]}, "properties": {"id": "431750000B0658", "commune": "43175", "prefixe": "000", "section": "B", "numero": "658", "contenance": 31795, "arpente": false, "created": "2015-01-21", "updated": "2015-01-23"}}, {"type": "Feature", "id": "43118000AB0146", "geometry": {"type": "Polygon", "coordinates": [[[3.3999122, 45.1572143], [3.4002835, 45.1570593], [3.4004434, 45.1574748], [3.4006978, 45.1574588], [3.4005114, 45.1569635], [3.4008554, 45.1567727], [3.4009818, 45.1568649], [3.4010581, 45.1570119], [3.4010845, 45.1571814], [3.4010819, 45.1572589], [3.4010692, 45.1573878], [3.4010552, 45.1574094], [3.4010104, 45.1574738], [3.4009617, 45.1575369], [3.4009093, 45.1575983], [3.4008532, 45.1576582], [3.4007502, 45.1578232], [3.4007293, 45.1579094], [3.4006682, 45.1581191], [3.4006657, 45.1582213], [3.4006724, 45.1582591], [3.4007106, 45.1583338], [3.4007507, 45.1584207], [3.4007865, 45.1585084], [3.4007832, 45.1586212], [3.4007795, 45.1586456], [3.3996055, 45.1581371], [3.3997606, 45.157969], [3.3998054, 45.1578477], [3.3998262, 45.1577617], [3.3998406, 45.1576832], [3.3999065, 45.1574738], [3.3999119, 45.1574385], [3.3999122, 45.1572143]], [[3.4003223, 45.1579625], [3.4004004, 45.1576152], [3.4001317, 45.1576112], [3.4002103, 45.1579618], [3.4003223, 45.1579625]]]}, "properties": {"id": "43118000AB0146", "commune": "43118", "prefixe": "000", "section": "AB", "numero": "146", "contenance": 11404, "arpente": false, "created": "2014-08-08", "updated": "2015-02-10"}}, {"type": "Feature", "id": "43118000AB0127", "geometry": {"type": "Polygon", "coordinates": [[[3.3989246, 45.1574187], [3.3988506, 45.1573063], [3.3998804, 45.1571372], [3.3998647, 45.1572453], [3.3998137, 45.1572556], [3.3989354, 45.1574319], [3.3989246, 45.1574187]]]}, "properties": {"id": "43118000AB0127", "commune": "43118", "prefixe": "000", "section": "AB", "numero": "127", "contenance": 1063, "arpente": false, "created": "2014-08-08", "updated": "2015-02-10"}}, {"type": "Feature", "id": "43118000AB0144", "geometry": {"type": "Polygon", "coordinates": [[[3.4002835, 45.1570593], [3.4005114, 45.1569635], [3.4006978, 45.1574588], [3.4004434, 45.1574748], [3.4002835, 45.1570593]]]}, "properties": {"id": "43118000AB0144", "commune": "43118", "prefixe": "000", "section": "AB", "numero": "144", "contenance": 1042, "arpente": false, "created": "2014-08-08", "updated": "2015-02-10"}}, {"type": "Feature", "id": "43118000AB0145", "geometry": {"type": "Polygon", "coordinates": [[[3.4003223, 45.1579625], [3.4002103, 45.1579618], [3.4001317, 45.1576112], [3.4004004, 45.1576152], [3.4003223, 45.1579625]]]}, "properties": {"id": "43118000AB0145", "commune": "43118", "prefixe": "000", "section": "AB", "numero": "145", "contenance": 547, "arpente": false, "created": "2014-08-08", "updated": "2015-02-10"}}, {"type": "Feature", "id": "431750000B0206", "geometry": {"type": "Polygon", "coordinates": [[[3.3577299, 45.1367698], [3.3576482, 45.1370172], [3.3575596, 45.1370221], [3.3576876, 45.1365441], [3.3578097, 45.1365305], [3.3577299, 45.1367698]]]}, "properties": {"id": "431750000B0206", "commune": "43175", "prefixe": "000", "section": "B", "numero": "206", "contenance": 401, "arpente": false, "created": "2015-01-14", "updated": "2015-01-23"}}, {"type": "Feature", "id": "431750000B0300", "geometry": {"type": "Polygon", "coordinates": [[[3.3611409, 45.1383901], [3.3611658, 45.1383912], [3.3613297, 45.1383502], [3.3614199, 45.1382953], [3.3614465, 45.1384184], [3.3613188, 45.1385205], [3.3611404, 45.138491], [3.3608835, 45.1384455], [3.3606282, 45.1383962], [3.3610714, 45.1383937], [3.3611409, 45.1383901]]]}, "properties": {"id": "431750000B0300", "commune": "43175", "prefixe": "000", "section": "B", "numero": "300", "contenance": 498, "arpente": false, "created": "2015-01-14", "updated": "2015-01-23"}}, {"type": "Feature", "id": "431750000B0301", "geometry": {"type": "Polygon", "coordinates": [[[3.361798, 45.1384687], [3.3616289, 45.1385737], [3.3613188, 45.1385205], [3.3614465, 45.1384184], [3.3614199, 45.1382953], [3.361442, 45.1382849], [3.3615027, 45.1382889], [3.3615532, 45.1382951], [3.3615871, 45.1383084], [3.3616702, 45.1383531], [3.3617168, 45.1383889], [3.3617593, 45.1384271], [3.361798, 45.1384687]]]}, "properties": {"id": "431750000B0301", "commune": "43175", "prefixe": "000", "section": "B", "numero": "301", "contenance": 510, "arpente": false, "created": "2015-01-14", "updated": "2015-01-23"}}, {"type": "Feature", "id": "431750000B0576", "geometry": {"type": "Polygon", "coordinates": [[[3.3700777, 45.1362157], [3.3704466, 45.1364868], [3.3696077, 45.1369324], [3.3692635, 45.1367784], [3.3700777, 45.1362157]]]}, "properties": {"id": "431750000B0576", "commune": "43175", "prefixe": "000", "section": "B", "numero": "576", "contenance": 3046, "arpente": false, "created": "2015-01-14", "updated": "2015-01-23"}}, {"type": "Feature", "id": "431750000B0553", "geometry": {"type": "Polygon", "coordinates": [[[3.3720721, 45.1386086], [3.3719585, 45.1384854], [3.3720008, 45.138458], [3.372018, 45.1384303], [3.3722345, 45.1382615], [3.3726031, 45.1383664], [3.3720721, 45.1386086]]]}, "properties": {"id": "431750000B0553", "commune": "43175", "prefixe": "000", "section": "B", "numero": "553", "contenance": 864, "arpente": false, "created": "2015-01-14", "updated": "2015-01-23"}}, {"type": "Feature", "id": "431750000B0556", "geometry": {"type": "Polygon", "coordinates": [[[3.3726031, 45.1383664], [3.3722345, 45.1382615], [3.3726314, 45.1379524], [3.3729575, 45.1382036], [3.37261, 45.1383633], [3.3726031, 45.1383664]]]}, "properties": {"id": "431750000B0556", "commune": "43175", "prefixe": "000", "section": "B", "numero": "556", "contenance": 1254, "arpente": false, "created": "2015-01-14", "updated": "2015-01-23"}}, {"type": "Feature", "id": "431750000B0424", "geometry": {"type": "Polygon", "coordinates": [[[3.3661554, 45.1408026], [3.3661749, 45.1409874], [3.3661998, 45.1411718], [3.3662196, 45.1412968], [3.3659351, 45.1413134], [3.3658363, 45.1406965], [3.3661157, 45.1407189], [3.3661554, 45.1408026]]]}, "properties": {"id": "431750000B0424", "commune": "43175", "prefixe": "000", "section": "B", "numero": "424", "contenance": 1459, "arpente": false, "created": "2015-01-14", "updated": "2015-01-23"}}, {"type": "Feature", "id": "431750000B0436", "geometry": {"type": "Polygon", "coordinates": [[[3.3659858, 45.1413383], [3.3662292, 45.1413217], [3.366254, 45.141478], [3.3662774, 45.1417375], [3.3662278, 45.1417279], [3.3661327, 45.1416923], [3.3660142, 45.1416749], [3.3659858, 45.1413383]]]}, "properties": {"id": "431750000B0436", "commune": "43175", "prefixe": "000", "section": "B", "numero": "436", "contenance": 797, "arpente": false, "created": "2015-01-14", "updated": "2015-01-23"}}, {"type": "Feature", "id": "430310000C0291", "geometry": {"type": "Polygon", "coordinates": [[[3.4060382, 45.1677942], [3.4061155, 45.1677086], [3.4061643, 45.1676326], [3.4060669, 45.1676017], [3.4061072, 45.1675349], [3.4071353, 45.1678596], [3.4070607, 45.1679239], [3.4067357, 45.1678213], [3.4063845, 45.1677089], [3.4063265, 45.167744], [3.4063106, 45.1677545], [3.4062864, 45.1677901], [3.4062465, 45.1678453], [3.4060382, 45.1677942]]]}, "properties": {"id": "430310000C0291", "commune": "43031", "prefixe": "000", "section": "C", "numero": "291", "contenance": 1050, "arpente": false, "created": "2014-08-08", "updated": "2015-01-08"}}, {"type": "Feature", "id": "430310000C0083", "geometry": {"type": "Polygon", "coordinates": [[[3.4061787, 45.1714584], [3.4062701, 45.1713789], [3.4062956, 45.1713662], [3.4064253, 45.1713429], [3.4064946, 45.1714506], [3.4063589, 45.171562], [3.4062449, 45.1714972], [3.4061787, 45.1714584]]]}, "properties": {"id": "430310000C0083", "commune": "43031", "prefixe": "000", "section": "C", "numero": "83", "contenance": 320, "arpente": false, "created": "2014-08-08", "updated": "2015-01-08"}}, {"type": "Feature", "id": "430310000C0091", "geometry": {"type": "Polygon", "coordinates": [[[3.4069018, 45.1708269], [3.4069343, 45.1708163], [3.4071815, 45.1707039], [3.407353, 45.1708631], [3.4072203, 45.1709111], [3.4071399, 45.1708459], [3.4070015, 45.1709275], [3.4069018, 45.1708269]]]}, "properties": {"id": "430310000C0091", "commune": "43031", "prefixe": "000", "section": "C", "numero": "91", "contenance": 428, "arpente": false, "created": "2014-08-08", "updated": "2015-01-08"}}, {"type": "Feature", "id": "430310000C0090", "geometry": {"type": "Polygon", "coordinates": [[[3.4070015, 45.1709275], [3.4071399, 45.1708459], [3.4072203, 45.1709111], [3.4071089, 45.1709499], [3.4070616, 45.1709885], [3.4070015, 45.1709275]]]}, "properties": {"id": "430310000C0090", "commune": "43031", "prefixe": "000", "section": "C", "numero": "90", "contenance": 120, "arpente": false, "created": "2014-08-08", "updated": "2015-01-08"}}, {"type": "Feature", "id": "431750000B1045", "geometry": {"type": "Polygon", "coordinates": [[[3.382779, 45.1415459], [3.3828174, 45.1417254], [3.3825242, 45.1416716], [3.382502, 45.1415763], [3.3827299, 45.1415565], [3.382779, 45.1415459]]]}, "properties": {"id": "431750000B1045", "commune": "43175", "prefixe": "000", "section": "B", "numero": "1045", "contenance": 314, "arpente": false, "created": "2015-01-14", "updated": "2024-11-22"}}, {"type": "Feature", "id": "431750000B1619", "geometry": {"type": "Polygon", "coordinates": [[[3.3828489, 45.1418651], [3.3825779, 45.1418759], [3.3825409, 45.1417324], [3.38283, 45.1417831], [3.3828489, 45.1418651]]]}, "properties": {"id": "431750000B1619", "commune": "43175", "prefixe": "000", "section": "B", "numero": "1619", "contenance": 280, "arpente": false, "created": "2015-01-14", "updated": "2024-11-22"}}, {"type": "Feature", "id": "431750000B1083", "geometry": {"type": "Polygon", "coordinates": [[[3.3847815, 45.1424263], [3.3845497, 45.1424497], [3.3844828, 45.1424511], [3.384357, 45.1419786], [3.3845451, 45.1419417], [3.384583, 45.1419373], [3.384706, 45.1422406], [3.3847815, 45.1424263]]]}, "properties": {"id": "431750000B1083", "commune": "43175", "prefixe": "000", "section": "B", "numero": "1083", "contenance": 1115, "arpente": false, "created": "2015-01-14", "updated": "2024-11-22"}}, {"type": "Feature", "id": "431750000B1143", "geometry": {"type": "Polygon", "coordinates": [[[3.3892846, 45.1428359], [3.3892742, 45.1427708], [3.389313, 45.1424536], [3.389275, 45.1423682], [3.3892998, 45.1423552], [3.3893825, 45.1423122], [3.3894622, 45.1422709], [3.3895475, 45.1422266], [3.3895856, 45.1422067], [3.3898811, 45.1420532], [3.3900039, 45.1421718], [3.3902123, 45.1423732], [3.3904307, 45.142584], [3.3905241, 45.1426743], [3.3902291, 45.1428138], [3.3901983, 45.1428259], [3.3901653, 45.1428345], [3.3901223, 45.1428402], [3.3900493, 45.1428463], [3.389976, 45.1428486], [3.3898903, 45.1428465], [3.3897595, 45.1428617], [3.3896089, 45.142884], [3.3895144, 45.1428889], [3.3894556, 45.1428791], [3.3892846, 45.1428359]]]}, "properties": {"id": "431750000B1143", "commune": "43175", "prefixe": "000", "section": "B", "numero": "1143", "contenance": 5680, "arpente": false, "created": "2015-01-14", "updated": "2024-11-22"}}, {"type": "Feature", "id": "431750000B1152", "geometry": {"type": "Polygon", "coordinates": [[[3.3920634, 45.1422367], [3.392285, 45.1425934], [3.3922203, 45.1427078], [3.392196, 45.1427401], [3.3921608, 45.1427542], [3.3920823, 45.1427632], [3.3918062, 45.1423017], [3.3920634, 45.1422367]]]}, "properties": {"id": "431750000B1152", "commune": "43175", "prefixe": "000", "section": "B", "numero": "1152", "contenance": 1085, "arpente": false, "created": "2015-01-14", "updated": "2024-11-22"}}, {"type": "Feature", "id": "431750000B1156", "geometry": {"type": "Polygon", "coordinates": [[[3.3926687, 45.1421195], [3.3927422, 45.1420871], [3.3928124, 45.1420514], [3.3928944, 45.1420036], [3.3930803, 45.1418456], [3.3930935, 45.1418564], [3.3934606, 45.1421588], [3.3934949, 45.1421871], [3.3933547, 45.1422387], [3.393054, 45.1422367], [3.3928142, 45.1422508], [3.3926687, 45.1421195]]]}, "properties": {"id": "431750000B1156", "commune": "43175", "prefixe": "000", "section": "B", "numero": "1156", "contenance": 1532, "arpente": false, "created": "2015-01-14", "updated": "2024-11-22"}}, {"type": "Feature", "id": "430310000C0740", "geometry": {"type": "Polygon", "coordinates": [[[3.4081724, 45.1659299], [3.4084382, 45.1662407], [3.408427, 45.1662419], [3.4083187, 45.1662369], [3.4082858, 45.1662329], [3.4080927, 45.1660137], [3.4081724, 45.1659299]]]}, "properties": {"id": "430310000C0740", "commune": "43031", "prefixe": "000", "section": "C", "numero": "740", "contenance": 350, "arpente": false, "created": "2014-08-08", "updated": "2015-01-08"}}, {"type": "Feature", "id": "431750000B1150", "geometry": {"type": "Polygon", "coordinates": [[[3.3916748, 45.1423373], [3.3917622, 45.14263], [3.3917227, 45.1426101], [3.39169, 45.1426108], [3.3916475, 45.1426283], [3.3916082, 45.1426589], [3.3914999, 45.1427574], [3.3911367, 45.1424059], [3.3913348, 45.1423987], [3.3915556, 45.1423795], [3.3916748, 45.1423373]]]}, "properties": {"id": "431750000B1150", "commune": "43175", "prefixe": "000", "section": "B", "numero": "1150", "contenance": 1174, "arpente": false, "created": "2015-01-14", "updated": "2024-11-22"}}, {"type": "Feature", "id": "431750000B1151", "geometry": {"type": "Polygon", "coordinates": [[[3.3918062, 45.1423017], [3.3920823, 45.1427632], [3.3920307, 45.1427652], [3.3919169, 45.1427338], [3.391877, 45.14271], [3.3917622, 45.14263], [3.3916748, 45.1423373], [3.3918062, 45.1423017]]]}, "properties": {"id": "431750000B1151", "commune": "43175", "prefixe": "000", "section": "B", "numero": "1151", "contenance": 700, "arpente": false, "created": "2015-01-14", "updated": "2024-11-22"}}, {"type": "Feature", "id": "431750000B1155", "geometry": {"type": "Polygon", "coordinates": [[[3.3929474, 45.1423752], [3.3928335, 45.1422734], [3.3931205, 45.1422657], [3.3931566, 45.1422706], [3.3931028, 45.1422844], [3.3930766, 45.1422978], [3.3930103, 45.1423351], [3.3929474, 45.1423752]]]}, "properties": {"id": "431750000B1155", "commune": "43175", "prefixe": "000", "section": "B", "numero": "1155", "contenance": 127, "arpente": false, "created": "2015-01-14", "updated": "2024-11-22"}}, {"type": "Feature", "id": "430310000C0629", "geometry": {"type": "Polygon", "coordinates": [[[3.4117576, 45.1642111], [3.4118479, 45.164161], [3.4118784, 45.1641531], [3.4120331, 45.1643586], [3.4120734, 45.1644721], [3.4120923, 45.1645512], [3.4121403, 45.1647933], [3.4121417, 45.1648134], [3.412136, 45.1647993], [3.4121181, 45.1647599], [3.4120976, 45.1647211], [3.4119841, 45.1645708], [3.4118897, 45.1644417], [3.4117628, 45.1642175], [3.4117576, 45.1642111]]]}, "properties": {"id": "430310000C0629", "commune": "43031", "prefixe": "000", "section": "C", "numero": "629", "contenance": 640, "arpente": false, "created": "2014-08-08", "updated": "2015-01-08"}}, {"type": "Feature", "id": "430310000C0630", "geometry": {"type": "Polygon", "coordinates": [[[3.4119771, 45.1641334], [3.4120906, 45.164112], [3.4121221, 45.164286], [3.4120956, 45.1642941], [3.4119771, 45.1641334]]]}, "properties": {"id": "430310000C0630", "commune": "43031", "prefixe": "000", "section": "C", "numero": "630", "contenance": 110, "arpente": false, "created": "2014-08-08", "updated": "2015-01-08"}}, {"type": "Feature", "id": "430310000C0631", "geometry": {"type": "Polygon", "coordinates": [[[3.4127062, 45.1639917], [3.4127372, 45.1640466], [3.4127658, 45.1641024], [3.4121513, 45.1642836], [3.4121172, 45.1640971], [3.4123382, 45.1640311], [3.4123674, 45.164083], [3.4123914, 45.164104], [3.4124134, 45.164126], [3.4124217, 45.1641353], [3.4127062, 45.1639917]]]}, "properties": {"id": "430310000C0631", "commune": "43031", "prefixe": "000", "section": "C", "numero": "631", "contenance": 735, "arpente": false, "created": "2014-08-08", "updated": "2015-01-08"}}, {"type": "Feature", "id": "431750000C0165", "geometry": {"type": "Polygon", "coordinates": [[[3.4025133, 45.1395787], [3.4024372, 45.1396065], [3.4023253, 45.1395634], [3.4025247, 45.1393961], [3.4026744, 45.1394168], [3.402823, 45.1394412], [3.4028672, 45.1394492], [3.4027547, 45.1395445], [3.4025133, 45.1395787]]]}, "properties": {"id": "431750000C0165", "commune": "43175", "prefixe": "000", "section": "C", "numero": "165", "contenance": 506, "arpente": false, "created": "2015-01-14", "updated": "2024-11-22"}}, {"type": "Feature", "id": "431750000C0164", "geometry": {"type": "Polygon", "coordinates": [[[3.4023253, 45.1395634], [3.4021971, 45.1395301], [3.4023666, 45.139373], [3.4025247, 45.1393961], [3.4023253, 45.1395634]]]}, "properties": {"id": "431750000C0164", "commune": "43175", "prefixe": "000", "section": "C", "numero": "164", "contenance": 239, "arpente": false, "created": "2015-01-14", "updated": "2024-11-22"}}, {"type": "Feature", "id": "431750000C0272", "geometry": {"type": "Polygon", "coordinates": [[[3.4068087, 45.144048], [3.4068522, 45.1440122], [3.4070422, 45.144096], [3.4070062, 45.1441352], [3.4068087, 45.144048]]]}, "properties": {"id": "431750000C0272", "commune": "43175", "prefixe": "000", "section": "C", "numero": "272", "contenance": 90, "arpente": false, "created": "2015-01-14", "updated": "2024-11-22"}}, {"type": "Feature", "id": "431750000C0389", "geometry": {"type": "Polygon", "coordinates": [[[3.4082879, 45.1440222], [3.4081204, 45.1438184], [3.4081331, 45.1438025], [3.4083638, 45.1436188], [3.4084989, 45.1437198], [3.408633, 45.1438217], [3.4082879, 45.1440222]]]}, "properties": {"id": "431750000C0389", "commune": "43175", "prefixe": "000", "section": "C", "numero": "389", "contenance": 895, "arpente": false, "created": "2015-01-14", "updated": "2024-11-22"}}, {"type": "Feature", "id": "431750000C0390", "geometry": {"type": "Polygon", "coordinates": [[[3.4084989, 45.1437198], [3.4083638, 45.1436188], [3.4084495, 45.1435601], [3.4087551, 45.1433808], [3.408879, 45.1434751], [3.4084989, 45.1437198]]]}, "properties": {"id": "431750000C0390", "commune": "43175", "prefixe": "000", "section": "C", "numero": "390", "contenance": 600, "arpente": false, "created": "2015-01-14", "updated": "2024-11-22"}}, {"type": "Feature", "id": "431750000C0355", "geometry": {"type": "Polygon", "coordinates": [[[3.4102819, 45.1451007], [3.4102061, 45.1455687], [3.4101145, 45.1455859], [3.4100216, 45.1455993], [3.4099145, 45.14561], [3.4099518, 45.1450672], [3.4102819, 45.1451007]]]}, "properties": {"id": "431750000C0355", "commune": "43175", "prefixe": "000", "section": "C", "numero": "355", "contenance": 1373, "arpente": false, "created": "2015-01-14", "updated": "2024-11-22"}}, {"type": "Feature", "id": "431750000C0690", "geometry": {"type": "Polygon", "coordinates": [[[3.3875511, 45.1221497], [3.3873062, 45.122225], [3.3872377, 45.1222684], [3.3865122, 45.1219546], [3.3868235, 45.1217783], [3.3875511, 45.1221497]]]}, "properties": {"id": "431750000C0690", "commune": "43175", "prefixe": "000", "section": "C", "numero": "690", "contenance": 1805, "arpente": false, "created": "2015-01-14", "updated": "2015-01-23"}}, {"type": "Feature", "id": "430310000C1220", "geometry": {"type": "Polygon", "coordinates": [[[3.4079678, 45.1627085], [3.4077635, 45.1625504], [3.4077991, 45.1625237], [3.4078366, 45.1624983], [3.4078549, 45.1624868], [3.4079764, 45.162388], [3.408033, 45.1623368], [3.4080603, 45.1623], [3.4080851, 45.162262], [3.4081928, 45.1622759], [3.408319, 45.1622856], [3.4079678, 45.1627085]]]}, "properties": {"id": "430310000C1220", "commune": "43031", "prefixe": "000", "section": "C", "numero": "1220", "contenance": 845, "arpente": false, "created": "2014-08-08", "updated": "2015-01-08"}}, {"type": "Feature", "id": "430310000C1221", "geometry": {"type": "Polygon", "coordinates": [[[3.4083346, 45.1622673], [3.4081502, 45.1622549], [3.4080914, 45.162242], [3.4081257, 45.1621429], [3.4081574, 45.1620432], [3.4081818, 45.1619602], [3.408217, 45.1618857], [3.4082287, 45.1618682], [3.4082895, 45.1618892], [3.4083965, 45.1619336], [3.4084051, 45.1619362], [3.4084381, 45.1619476], [3.4084699, 45.1619606], [3.4085305, 45.1619934], [3.408551, 45.1620044], [3.4083346, 45.1622673]]]}, "properties": {"id": "430310000C1221", "commune": "43031", "prefixe": "000", "section": "C", "numero": "1221", "contenance": 910, "arpente": false, "created": "2014-08-08", "updated": "2015-01-08"}}, {"type": "Feature", "id": "431750000D0125", "geometry": {"type": "Polygon", "coordinates": [[[3.4196792, 45.1414333], [3.4197645, 45.1415555], [3.4183012, 45.1425944], [3.4180985, 45.1427388], [3.4177982, 45.1429543], [3.4177895, 45.1428811], [3.4177755, 45.1428085], [3.4177662, 45.1427709], [3.4177582, 45.1426573], [3.4196792, 45.1414333]]]}, "properties": {"id": "431750000D0125", "commune": "43175", "prefixe": "000", "section": "D", "numero": "125", "contenance": 4300, "arpente": false, "created": "2015-01-14", "updated": "2015-01-23"}}, {"type": "Feature", "id": "431750000D0201", "geometry": {"type": "Polygon", "coordinates": [[[3.4163994, 45.1420651], [3.4166838, 45.1420125], [3.4172045, 45.1418212], [3.417449, 45.1417179], [3.4175502, 45.1418562], [3.4175897, 45.141931], [3.4175813, 45.1419814], [3.4175982, 45.1421022], [3.4176206, 45.1422225], [3.4176354, 45.1422892], [3.417704, 45.1424951], [3.4177177, 45.1425608], [3.4177136, 45.1426751], [3.4173619, 45.1428574], [3.4172307, 45.1427389], [3.4170589, 45.1428519], [3.4169796, 45.1428102], [3.4168879, 45.1427274], [3.4169327, 45.1426615], [3.4163994, 45.1420651]]]}, "properties": {"id": "431750000D0201", "commune": "43175", "prefixe": "000", "section": "D", "numero": "201", "contenance": 7904, "arpente": false, "created": "2015-01-14", "updated": "2015-01-23"}}, {"type": "Feature", "id": "431750000D0202", "geometry": {"type": "Polygon", "coordinates": [[[3.4177136, 45.1426751], [3.4177583, 45.1428993], [3.4177655, 45.1429806], [3.4176343, 45.1430804], [3.4174572, 45.1429693], [3.4173619, 45.1428574], [3.4177136, 45.1426751]]]}, "properties": {"id": "431750000D0202", "commune": "43175", "prefixe": "000", "section": "D", "numero": "202", "contenance": 794, "arpente": false, "created": "2015-01-14", "updated": "2015-01-23"}}, {"type": "Feature", "id": "43175000ZA0005", "geometry": {"type": "Polygon", "coordinates": [[[3.3944836, 45.1411521], [3.3942698, 45.1413101], [3.394213, 45.1416307], [3.3941268, 45.1418118], [3.3940992, 45.1418368], [3.3940676, 45.141855], [3.3940153, 45.1418239], [3.3932225, 45.1413525], [3.3933061, 45.1413217], [3.3933932, 45.1412962], [3.3934801, 45.1412771], [3.3935844, 45.1412385], [3.393671, 45.1412467], [3.3937662, 45.1412118], [3.3938281, 45.1411741], [3.3941933, 45.140894], [3.3944163, 45.1410921], [3.3944836, 45.1411521]]]}, "properties": {"id": "43175000ZA0005", "commune": "43175", "prefixe": "000", "section": "ZA", "numero": "5", "contenance": 4500, "arpente": false, "created": "2015-01-14", "updated": "2024-11-22"}}, {"type": "Feature", "id": "43175000ZA0025", "geometry": {"type": "Polygon", "coordinates": [[[3.3991996, 45.139642], [3.3992893, 45.1395184], [3.3993183, 45.1394786], [3.3994782, 45.1395442], [3.3994999, 45.1395891], [3.3999036, 45.1398072], [3.4000188, 45.1399261], [3.3997828, 45.1399388], [3.3997251, 45.1399379], [3.3996294, 45.1398801], [3.3995174, 45.1397802], [3.3994076, 45.1397126], [3.3993497, 45.1396873], [3.3992764, 45.1396619], [3.3991996, 45.139642]]]}, "properties": {"id": "43175000ZA0025", "commune": "43175", "prefixe": "000", "section": "ZA", "numero": "25", "contenance": 1160, "arpente": false, "created": "2015-01-14", "updated": "2024-11-22"}}]}